,id,rent,street_number,lat,lng,distance_meters,duration,name,type
0,108761792,1745,Berneggstrasse 28,47.4208984375,9.37622547149658,8117.7,593.7,Westcenter,supermarket
1,2147994348,1720,Heiligkreuzstrasse 53,47.4404067993164,9.3939847946167,9321.7,605.4,Westcenter,supermarket
2,3000166218,1150,Lindenstrasse 76,47.4330558776855,9.39382934570312,8228.7,498.0,Westcenter,supermarket
3,3000251780,1390,Feldlistrasse 11,47.4216995239258,9.35613536834717,4802.8,441.6,Westcenter,supermarket
4,3000402506,2130,Goliathgasse 37,47.4279747009277,9.37712287902832,7984.3,565.0,Westcenter,supermarket
5,3000538335,1330,Oberstrasse 87,47.4164085388184,9.36261463165283,4957.9,464.2,Westcenter,supermarket
6,3000688515,1200,Langgasse 155,47.449348449707,9.39771270751953,10421.2,682.8,Westcenter,supermarket
7,3000780700,1120,Oberstrasse 123,47.4147109985352,9.35912609100342,4550.8,440.3,Westcenter,supermarket
8,3000830705,1540,Sonnrainweg 6,47.4482727050781,9.39763641357422,10376.1,683.6,Westcenter,supermarket
9,3000836173,1090,Langgasse 89,47.4400329589844,9.39156341552734,9206.7,571.1,Westcenter,supermarket
10,3000861228,1540,Sonnrainweg 12,47.4477005004883,9.39766311645508,10440.1,692.8,Westcenter,supermarket
11,3000872761,1180,Linsebühlstrasse 16,47.4243240356445,9.38075637817383,8343.9,585.5,Westcenter,supermarket
12,3000873636,1640,Ludwigstr. 21,47.4412498474121,9.37837314605713,9637.4,634.8,Westcenter,supermarket
13,3000873652,900,Tschudistr. 36,47.4163856506348,9.36409378051758,5417.9,536.4,Westcenter,supermarket
14,3000873750,1150,St. Georgen-Str. 39,47.4195594787598,9.37901306152344,8361.1,584.4,Westcenter,supermarket
15,3000888275,1240,Langgasse 70,47.4388046264648,9.39048862457275,9049.3,557.0,Westcenter,supermarket
16,3000922116,1454,Dianastrasse 10,47.4327964782715,9.38241004943848,8760.5,537.2,Westcenter,supermarket
17,3000924363,790,Brauerstrasse 5,47.4337387084961,9.39980602264404,8959.8,563.2,Westcenter,supermarket
18,3000929497,1250,Eisengasse 3,47.4253387451172,9.38271808624268,8530.2,610.5,Westcenter,supermarket
19,3000939647,1550,Ludwigstr. 17,47.4409484863281,9.37808418273926,9597.6,628.9,Westcenter,supermarket
20,3000943788,1370,Buchentalstrasse 5,47.4334945678711,9.39832019805908,8903.5,558.4,Westcenter,supermarket
21,3000946773,1540,Langgasse 92,47.4403915405273,9.39240264892578,9277.4,577.5,Westcenter,supermarket
22,3000946809,1400,Feldbachstrasse 10,47.4207611083984,9.3547191619873,4554.2,426.3,Westcenter,supermarket
23,3000955021,2120,Sonnenhaldenstrasse 64,47.4397735595703,9.38191032409668,9155.4,561.4,Westcenter,supermarket
24,3000969216,910,Helvetiastrasse 41,47.4332618713379,9.3950719833374,8454.9,539.4,Westcenter,supermarket
25,3000975218,1400,Schwalbenstrasse 10,47.427001953125,9.38384819030762,9131.7,603.0,Westcenter,supermarket
26,3000976414,1150,St. Georgen-Str. 39,47.4195594787598,9.37901306152344,8361.1,584.4,Westcenter,supermarket
27,3000981079,1690,Altmannstrasse 18,47.4130172729492,9.36433792114258,8175.4,572.1,Westcenter,supermarket
28,3000999080,1500,Bernhardswiesstrasse 9,47.4086647033691,9.34245109558105,3732.7,358.6,Westcenter,supermarket
29,3000999081,1070,Bernhardswiesstrasse 11,47.4083480834961,9.34207916259766,3755.3,360.9,Westcenter,supermarket
30,3001014618,1860,Isenringweg 3,47.420238494873,9.35236835479736,4449.6,416.2,Westcenter,supermarket
31,3001016630,1290,Langgasse 165,47.4505348205566,9.39797592163086,10551.2,694.4,Westcenter,supermarket
32,3001027277,1790,Stahlstr. 5,47.4210357666016,9.35638999938965,4673.3,432.2,Westcenter,supermarket
33,3001030845,1610,Burgstrasse 64,47.4174880981445,9.35832500457764,4470.4,408.4,Westcenter,supermarket
34,3001030847,1380,Burgstrasse 64,47.4174880981445,9.35832500457764,4470.4,408.4,Westcenter,supermarket
35,3001030848,1900,Burgstrasse 64,47.4174880981445,9.35832500457764,4470.4,408.4,Westcenter,supermarket
36,3001031567,1390,Zilstrasse 4a,47.4408798217773,9.4041633605957,9758.1,663.5,Westcenter,supermarket
37,3001042243,1350,Bleichestrasse 11,47.4216804504395,9.37221050262451,7611.8,506.1,Westcenter,supermarket
38,3001042251,1490,Achslenstr. 5,47.4326629638672,9.41385936737061,10051.6,674.8,Westcenter,supermarket
39,3001042300,1290,Zilstrasse 14,47.4414825439453,9.40545177459717,11018.4,692.7,Westcenter,supermarket
40,3001052159,2000,Kirchlistrasse 1,47.4400367736816,9.37997150421143,9316.0,588.4,Westcenter,supermarket
41,3001052160,1100,Kirchlistrasse 1,47.4400367736816,9.37997150421143,9316.0,588.4,Westcenter,supermarket
42,3001077557,990,Grossackerstr. 10,47.4292640686035,9.39270114898682,8557.5,536.9,Westcenter,supermarket
43,3001077667,760,Sonnrainweg 6,47.4482727050781,9.39763641357422,10376.1,683.6,Westcenter,supermarket
44,3001077672,1270,Langgasse 163,47.4503021240234,9.39786911010742,10525.6,692.1,Westcenter,supermarket
45,3001082656,1070,Langgasse 63,47.4384689331055,9.3895092010498,9172.7,576.1,Westcenter,supermarket
46,3001091170,1620,Tablatstr. 12,47.4376907348633,9.42048072814941,10595.1,599.5,Westcenter,supermarket
47,3001093133,1590,Spisergasse 27,47.4246826171875,9.37836074829102,9030.9,762.6,Westcenter,supermarket
48,3001095313,1350,Vogelherdstrasse 19,47.4366264343262,9.42048454284668,11338.8,699.2,Westcenter,supermarket
49,3001096690,1620,Demutstrasse 7,47.4175682067871,9.38098335266113,8684.4,615.4,Westcenter,supermarket
50,3001096691,1590,Demutstrasse 7,47.4175682067871,9.38098335266113,8684.4,615.4,Westcenter,supermarket
51,3001100107,1150,Glaserstrasse 3A,47.4188766479492,9.35424995422363,4372.8,403.4,Westcenter,supermarket
52,3001102989,1180,Büchelstrasse 4,47.4205780029297,9.36482524871826,6764.8,458.1,Westcenter,supermarket
53,3001111355,1450,Zilweg 7,47.442310333252,9.40835094451904,11091.5,692.4,Westcenter,supermarket
54,3001117101,1390,Feldbachstrasse 10,47.4207611083984,9.3547191619873,4554.2,426.3,Westcenter,supermarket
55,3001118234,1140,Langgasse 11,47.4346084594727,9.38476085662842,8469.4,500.4,Westcenter,supermarket
56,3001120687,1300,Speicherstr. 27,47.4247703552246,9.38499069213867,8673.3,615.3,Westcenter,supermarket
57,3001124068,1650,Fürstenlandstrasse 179,47.4093055725098,9.33209800720215,2279.9,209.4,Westcenter,supermarket
58,3001133982,1690,Zilweg 10,47.4417991638184,9.40919876098633,11153.5,701.4,Westcenter,supermarket
59,3001134003,1293,Iddastr. 19,47.436710357666,9.38644790649414,8700.0,537.2,Westcenter,supermarket
60,3001134382,2200,Heimstr. 8a,47.4148788452148,9.33783340454102,3139.3,297.6,Westcenter,supermarket
61,3001142255,1950,Katharinengasse 8,47.4267997741699,9.3772439956665,7980.6,561.0,Westcenter,supermarket
62,3001142256,1900,Katharinengasse 8,47.4267997741699,9.3772439956665,7980.6,561.0,Westcenter,supermarket
63,3001145344,1500,Röschstrasse 11,47.4319686889648,9.40022945404053,8973.4,598.1,Westcenter,supermarket
64,3001145410,1390,Oberstrasse 205,47.4121780395508,9.35199928283691,4361.7,452.0,Westcenter,supermarket
65,3001145546,1870,Stahlstrasse 9,47.4213943481445,9.35567760467529,4740.8,442.4,Westcenter,supermarket
66,3001145712,1300,Oststr. 7,47.4309387207031,9.39225673675537,8396.5,535.0,Westcenter,supermarket
67,3001145713,1200,Oststr. 7,47.4309387207031,9.39225673675537,8396.5,535.0,Westcenter,supermarket
68,3001145758,1100,Langgasse 59c,47.4384803771973,9.38886642456055,8971.7,577.8,Westcenter,supermarket
69,3001146643,900,Paradiesstrasse 29,47.4177627563477,9.36205863952637,4823.5,459.7,Westcenter,supermarket
70,3001154674,1350,Langgasse 155,47.449348449707,9.39771270751953,10421.2,682.8,Westcenter,supermarket
71,3001158513,1290,Grütlistrasse 6,47.4346389770508,9.40295505523682,9262.4,598.2,Westcenter,supermarket
72,3001167228,1307,Langgasse 155,47.449348449707,9.39771270751953,10421.2,682.8,Westcenter,supermarket
73,3001172304,1050,Lukasstrasse 3,47.4398574829102,9.39527797698975,9262.4,603.5,Westcenter,supermarket
74,3001174557,1060,Felsenstrasse 78,47.4196395874023,9.37182903289795,7755.2,540.7,Westcenter,supermarket
75,3001175366,1370,Sonnenhaldenstrasse 19,47.4405136108398,9.3912525177002,9619.6,616.9,Westcenter,supermarket
76,3001175690,1484,Aeplistrasse 5,47.4345512390137,9.38718509674072,8371.8,497.0,Westcenter,supermarket
77,3001177098,1355,Burenbüchelstr. 9,47.4359474182129,9.41016292572021,9931.1,671.3,Westcenter,supermarket
78,3001177658,1750,Ullmannstrasse 27,47.4132843017578,9.33195877075195,3023.8,304.8,Westcenter,supermarket
79,3001183466,760,Unterstr. 53,47.418342590332,9.3661994934082,7027.3,471.0,Westcenter,supermarket
80,3001184167,890,St. Georgen-Strasse 118,47.4153137207031,9.38610649108887,9216.5,661.5,Westcenter,supermarket
81,3001187072,1290,Ilgenstrasse 50,47.4165382385254,9.35750961303711,4442.4,419.0,Westcenter,supermarket
82,3001187814,1480,Redingstrasse 4,47.4271087646484,9.37194442749023,7859.4,557.2,Westcenter,supermarket
83,3001189594,1360,Hagenbuchstrasse 10,47.4311408996582,9.3983097076416,9222.6,606.0,Westcenter,supermarket
84,3001190574,1100,Hungerbühlerstrasse 1a,47.4104766845703,9.33370113372803,2509.9,241.9,Westcenter,supermarket
85,3001192364,775,Falkensteinstrasse 5,47.4299926757812,9.39174365997314,8522.4,534.5,Westcenter,supermarket
86,3001192542,740,Brunnenbergstrasse 10,47.4239501953125,9.38275909423828,8594.4,621.1,Westcenter,supermarket
87,3001193043,1750,Schmiedgasse 19,47.4238662719727,9.37584400177002,8904.7,731.8,Westcenter,supermarket
88,3001198085,2850,Hinterlauben 10,47.424747467041,9.37550258636475,8897.9,729.3,Westcenter,supermarket
89,3001198152,2390,Heiligkreuzstrasse 53,47.4404067993164,9.3939847946167,9321.7,605.4,Westcenter,supermarket
90,3001198951,1600,Vonwilstrasse 51,47.4194450378418,9.35537147521973,4490.8,421.8,Westcenter,supermarket
91,3001201708,2370,Stauffacherstrasse 5,47.4235572814941,9.36404323577881,7370.5,517.8,Westcenter,supermarket
92,3001206690,1290,Treuackerstrasse 25,47.4154357910156,9.36357879638672,7870.0,550.8,Westcenter,supermarket
93,3001207296,2410,Burgstrasse 51,47.4180908203125,9.35981178283691,4602.7,424.3,Westcenter,supermarket
94,3001207526,1350,Burgstrasse 85,47.4163856506348,9.35553169250488,4222.7,386.1,Westcenter,supermarket
95,3001209766,1850,Oberer Graben 37,47.4225959777832,9.37484836578369,8145.7,616.1,Westcenter,supermarket
96,3001214688,1530,Waldaustr. 8,47.4199867248535,9.35248279571533,4422.2,414.2,Westcenter,supermarket
97,3001219305,995,Burgstrasse 21,47.4193382263184,9.36314487457275,4907.9,455.3,Westcenter,supermarket
98,3001222337,1355,Oberstrasse 201,47.4123687744141,9.35126495361328,3939.9,391.4,Westcenter,supermarket
99,3001222348,1375,Oberstrasse 205,47.4121780395508,9.35199928283691,4361.7,452.0,Westcenter,supermarket
100,3001222804,1520,Wiesentalstr. 26,47.433349609375,9.3979549407959,8621.7,564.7,Westcenter,supermarket
101,3001223803,1410,Grenzstrasse 2,47.4178924560547,9.35950660705566,4591.2,429.5,Westcenter,supermarket
102,3001224338,1010,Hardungstrasse 63a,47.4254302978516,9.40409088134766,10248.0,756.7,Westcenter,supermarket
103,3001225087,1400,Turnerstrasse 32,47.4180221557617,9.35484027862549,4409.3,405.2,Westcenter,supermarket
104,3001226202,1590,Goliathgasse 37,47.4279747009277,9.37712287902832,7984.3,565.0,Westcenter,supermarket
105,3001233790,950,Rorschacher Strasse 183,47.4329643249512,9.39859294891357,8811.6,539.8,Westcenter,supermarket
106,3001234723,1310,Oberstrasse 255,47.408634185791,9.34397888183594,4265.8,434.5,Westcenter,supermarket
107,3001235438,1690,Tannenstrasse 32,47.4357986450195,9.3785228729248,8530.8,600.5,Westcenter,supermarket
108,3001236200,1290,Geltenwilenstrasse 23,47.418327331543,9.3671875,7045.6,464.5,Westcenter,supermarket
109,3001237750,1500,Gottfried-Keller-Strasse 12,47.4202613830566,9.37479496002197,7994.1,552.7,Westcenter,supermarket
110,3001237758,1390,Tschudistr. 15,47.4173316955566,9.36606597900391,8194.3,620.0,Westcenter,supermarket
111,3001237759,1170,Krontalstr. 13,47.4327812194824,9.39970684051514,9056.1,584.8,Westcenter,supermarket
112,3001240014,1260,Kreuzbleichestrasse 8,47.4201164245605,9.35637950897217,4614.5,446.9,Westcenter,supermarket
113,3001246535,1820,Langgasse 11,47.4346084594727,9.38476085662842,8469.4,500.4,Westcenter,supermarket
114,3001246726,1170,Achslenweg 8,47.4349250793457,9.40976142883301,9961.2,676.0,Westcenter,supermarket
115,3001252594,1160,Haggenstr. 56,47.4062271118164,9.33734130859375,3214.4,299.6,Westcenter,supermarket
116,3001252596,1430,Haggenstr. 58,47.4060325622559,9.33769130706787,3252.4,303.0,Westcenter,supermarket
117,3001253414,3360,Multergasse 6,47.4246520996094,9.37599945068359,8903.7,724.9,Westcenter,supermarket
118,3001259959,1580,Brauerstrasse 81,47.442699432373,9.41032409667969,10621.7,638.5,Westcenter,supermarket
119,3001260432,1190,Rickenstrasse 4,47.407772064209,9.33381938934326,3239.9,319.1,Westcenter,supermarket
120,3001260433,870,Buchentalstrasse 5,47.4334945678711,9.39832019805908,8903.5,558.4,Westcenter,supermarket
121,3001261017,1080,Kolumbanstrasse 36,47.4381294250488,9.39186096191406,9022.9,579.2,Westcenter,supermarket
122,3001262175,900,Burgstrasse 66,47.4173927307129,9.35795593261719,4440.4,405.6,Westcenter,supermarket
123,3001262720,1650,Wildeggstrasse 25,47.4238510131836,9.38372230529785,8779.4,667.0,Westcenter,supermarket
124,3001264914,1000,Domänenstrasse 2,47.4405937194824,9.39426136016846,9360.4,614.0,Westcenter,supermarket
125,3001270299,1200,Falkensteinstrasse 10,47.4299011230469,9.39220905303955,8492.9,530.3,Westcenter,supermarket
126,3001274608,1530,Zweibruggenmühlestrasse 7,47.4072647094727,9.32735157012939,2025.1,214.8,Westcenter,supermarket
127,3001277024,1210,Unterer Graben 39,47.4283866882324,9.37582015991211,7686.4,519.5,Westcenter,supermarket
128,3001279168,1370,Haggenstr. 86,47.4040832519531,9.33809375762939,3691.5,365.6,Westcenter,supermarket
129,3001279201,1520,Sonnenhaldenstrasse 10a,47.4417457580566,9.39127922058105,9613.9,623.9,Westcenter,supermarket
130,3001279203,1000,Sonnenhaldenstrasse 8,47.4416007995605,9.39217567443848,9587.0,617.5,Westcenter,supermarket
131,3001279734,1040,Kräzernstrasse 10,47.4073371887207,9.32496070861816,1835.9,190.3,Westcenter,supermarket
132,3001279823,1490,Solitüdenstrasse 1,47.4126167297363,9.36404991149902,8149.6,569.3,Westcenter,supermarket
133,3001279899,1350,Sömmerlistrasse,47.4184989929199,9.35178279876709,4180.3,383.8,Westcenter,supermarket
134,3001281270,800,Kolumbanstrasse 47,47.4394798278809,9.39236450195312,9307.2,598.4,Westcenter,supermarket
135,3001281696,1050,Oberstrasse 81,47.4164695739746,9.36275386810303,4970.4,465.3,Westcenter,supermarket
136,3001281709,890,Berneggstr. 54,47.4187965393066,9.37232875823975,8183.6,587.7,Westcenter,supermarket
137,3001284556,860,Taubenstr. 4,47.4360466003418,9.38796520233154,8549.9,524.3,Westcenter,supermarket
138,3001285527,1170,Langgasse 139,47.4445838928223,9.39579772949219,9818.3,628.3,Westcenter,supermarket
139,3001285652,700,Oberstrasse 123,47.4147109985352,9.35912609100342,4550.8,440.3,Westcenter,supermarket
140,3001285654,995,Falkensteinstrasse 5,47.4299926757812,9.39174365997314,8522.4,534.5,Westcenter,supermarket
141,3001286025,1120,Flurhofstr. 153,47.4323043823242,9.40336227416992,9516.7,648.0,Westcenter,supermarket
142,3001286515,890,Tannenstrasse 36,47.435977935791,9.37874412536621,8555.3,604.2,Westcenter,supermarket
143,3001289983,1400,Fidesstrasse 12,47.4321784973145,9.39260673522949,8170.4,495.1,Westcenter,supermarket
144,3001295318,1055,Langgasse 44,47.436882019043,9.38813591003418,8768.2,531.5,Westcenter,supermarket
145,3001295565,1500,Oberstrasse 293 C,47.4038543701172,9.34081935882568,3689.5,361.5,Westcenter,supermarket
146,3001296047,2100,Waisenhausstrasse 5,47.4242172241211,9.37339401245117,7769.8,545.8,Westcenter,supermarket
147,3001296351,1390,Spisergasse 29,47.4246368408203,9.37842750549316,9037.2,764.0,Westcenter,supermarket
148,3001297995,1100,Kirchlistrasse 1,47.4400367736816,9.37997150421143,9316.0,588.4,Westcenter,supermarket
149,3001298694,1090,Langgasse 153,47.449104309082,9.39769840240479,10395.2,680.4,Westcenter,supermarket
150,3001298695,1290,Langgasse 163,47.4503021240234,9.39786911010742,10525.6,692.1,Westcenter,supermarket
151,3001300461,1150,Brühlgasse 30,47.425220489502,9.37834548950195,8125.1,563.8,Westcenter,supermarket
152,3001300521,1600,Teufener Strasse 123,47.4134178161621,9.36389064788818,8045.7,552.9,Westcenter,supermarket
153,3001302822,1470,Reherstr. 19,47.4371223449707,9.41578769683838,10798.8,640.2,Westcenter,supermarket
154,3001302972,1090,Rickenstrasse 4,47.407772064209,9.33381938934326,3239.9,319.1,Westcenter,supermarket
155,3001302995,1450,Tigerbergstrasse 2,47.4277496337891,9.37399578094482,7571.8,513.4,Westcenter,supermarket
156,3001302996,1410,Grenzstrasse 2,47.4178924560547,9.35950660705566,4591.2,429.5,Westcenter,supermarket
157,3001303220,1190,Rickenstrasse 4,47.407772064209,9.33381938934326,3239.9,319.1,Westcenter,supermarket
158,3001303637,1035,Domänenstrasse 2,47.4405937194824,9.39426136016846,9360.4,614.0,Westcenter,supermarket
159,3001305224,1230,Hafnerstrasse 8,47.4238777160645,9.38092994689941,8471.7,607.4,Westcenter,supermarket
160,3001306042,1200,Ruhbergstrasse 63,47.4155731201172,9.36490821838379,5609.2,562.7,Westcenter,supermarket
161,3001309010,1390,Lindenstr. 33,47.4322128295898,9.38853549957275,8219.4,501.7,Westcenter,supermarket
162,3001309858,1000,Brühlbleichestrasse 10,47.4305038452148,9.38340282440186,8773.1,586.6,Westcenter,supermarket
163,3001310297,1390,Langgasse 91,47.4401397705078,9.39169311523438,9222.1,572.5,Westcenter,supermarket
164,3001310505,761,Sonnrainweg 12,47.4477005004883,9.39766311645508,10440.1,692.8,Westcenter,supermarket
165,3001310526,1780,Landhausstrasse 9,47.4129066467285,9.35278511047363,4094.2,412.9,Westcenter,supermarket
166,3001311443,925,Gübsenstrasse 90,47.4002265930176,9.30102443695068,1158.2,148.4,Westcenter,supermarket
167,3001311883,840,Rorschacher Strasse 183,47.4329643249512,9.39859294891357,8811.6,539.8,Westcenter,supermarket
168,3001312809,1290,Zilstrasse 56,47.4436836242676,9.40863132476807,10652.6,629.0,Westcenter,supermarket
169,3001312835,1480,Kamorstrasse 14,47.4190788269043,9.35215282440186,4272.0,402.6,Westcenter,supermarket
170,3001312841,1980,Obere Felsenstrasse 2,47.4189987182617,9.37156295776367,7775.5,541.3,Westcenter,supermarket
171,3001314391,1330,Scheibenackerstrasse 14,47.4295616149902,9.39133739471436,8571.7,545.0,Westcenter,supermarket
172,3001315241,1380,Ullmannstrasse 23,47.4135284423828,9.33248519897461,2969.4,296.7,Westcenter,supermarket
173,3001315318,990,Burgstrasse 19,47.4193916320801,9.36352825164795,4938.2,459.9,Westcenter,supermarket
174,3001316083,2150,Heimstr. 12,47.4145622253418,9.33732604980469,3140.0,297.8,Westcenter,supermarket
175,3001317298,1420,Rehburgstrasse 1,47.4315147399902,9.39706230163574,8758.9,562.7,Westcenter,supermarket
176,3001317671,1590,Goliathgasse 37,47.4279747009277,9.37712287902832,7984.3,565.0,Westcenter,supermarket
177,3001317841,1270,Iddastrasse 30a,47.4375686645508,9.38802242279053,8847.2,559.2,Westcenter,supermarket
178,3001318294,1290,Linsebühlstrasse 12,47.4242973327637,9.3804931640625,8323.9,583.7,Westcenter,supermarket
179,3001318375,1490,Brühlbleichestrasse 10,47.4305038452148,9.38340282440186,8773.1,586.6,Westcenter,supermarket
180,3001319171,1200,Wildeggstrasse 16,47.4232139587402,9.38241863250732,8661.0,649.9,Westcenter,supermarket
181,3001319741,1350,Wildeggstr. 7,47.4232711791992,9.38164901733398,8610.8,642.7,Westcenter,supermarket
182,3001319742,1490,Waldaustrasse 2,47.4203186035156,9.35294151306152,4472.4,418.4,Westcenter,supermarket
183,3001320785,1290,Speicherstr. 29,47.4248085021973,9.38529205322266,8696.3,617.4,Westcenter,supermarket
184,3001321210,1290,Langgasse 36,47.4360466003418,9.38742446899414,8579.2,528.7,Westcenter,supermarket
185,3001321244,1635,Oberzilstrasse 6,47.4412536621094,9.40854740142822,9960.7,694.4,Westcenter,supermarket
186,3001321685,1170,Buchwaldstrasse 2,47.4361724853516,9.39269924163818,8757.4,543.6,Westcenter,supermarket
187,3001327124,1600,Oststrasse 20,47.4316635131836,9.39398384094238,8324.0,521.3,Westcenter,supermarket
188,3001327633,1150,Linsebühlstrasse 35,47.4245948791504,9.38196849822998,8438.4,594.1,Westcenter,supermarket
189,3001328642,1200,Badstrasse 8,47.4190864562988,9.35286998748779,4290.8,405.6,Westcenter,supermarket
190,3001328643,1260,Badstrasse 8,47.4190864562988,9.35286998748779,4290.8,405.6,Westcenter,supermarket
191,3001328644,1160,Badstrasse 8,47.4190864562988,9.35286998748779,4290.8,405.6,Westcenter,supermarket
192,3001328645,1160,Badstrasse 8,47.4190864562988,9.35286998748779,4290.8,405.6,Westcenter,supermarket
193,3001328965,1095,Rickenstrasse 20,47.4074401855469,9.33251190185547,3343.7,334.1,Westcenter,supermarket
194,3001328999,1350,Schönbüelpark 12,47.4396553039551,9.41220855712891,10664.6,628.1,Westcenter,supermarket
195,3001329780,1120,Stationsweg 8,47.4075012207031,9.32912540435791,2537.0,257.2,Westcenter,supermarket
196,3001329858,890,Berneggstrasse 52,47.419017791748,9.37270641326904,8146.6,582.4,Westcenter,supermarket
197,3001330645,1000,Buchwaldstrasse 2,47.4361724853516,9.39269924163818,8757.4,543.6,Westcenter,supermarket
198,3001330772,1200,Buchwaldstrasse 2,47.4361724853516,9.39269924163818,8757.4,543.6,Westcenter,supermarket
199,3001331497,1730,Zwinglistrasse 19,47.4256134033203,9.37030601501465,7194.9,475.9,Westcenter,supermarket
200,3001331624,1560,Langgasse 29,47.4360008239746,9.38662338256836,8619.9,518.3,Westcenter,supermarket
201,3001332172,590,Sonnenhaldenstrasse 10a,47.4417457580566,9.39127922058105,9613.9,623.9,Westcenter,supermarket
202,3001334112,1345,Zilweg 13,47.4425430297852,9.40908527374268,11185.1,708.3,Westcenter,supermarket
203,3001334114,1575,Zilweg 15,47.4427108764648,9.40900611877441,11185.1,708.3,Westcenter,supermarket
204,3001335398,900,Wildeggstrasse 20,47.4234085083008,9.3829870223999,8708.9,656.9,Westcenter,supermarket
205,3001335407,1450,Paradiesstrasse 2a,47.419059753418,9.36344051361084,5023.6,480.0,Westcenter,supermarket
206,3001335808,1190,Rorschacher Strasse 229,47.435791015625,9.40303707122803,9272.2,589.3,Westcenter,supermarket
207,3001336192,1780,Langweidstrasse 2,47.4125061035156,9.35506057739258,4251.3,432.8,Westcenter,supermarket
208,3001336193,1250,Langweidstrasse 4,47.4123268127441,9.35518360137939,4260.9,434.3,Westcenter,supermarket
209,3001336198,660,Langweidstrasse 2,47.4125061035156,9.35506057739258,4251.3,432.8,Westcenter,supermarket
210,3001336200,1980,Langweidstrasse 4,47.4123268127441,9.35518360137939,4260.9,434.3,Westcenter,supermarket
211,3001336203,2190,Langweidstrasse 8,47.4123954772949,9.35590171813965,4316.7,442.6,Westcenter,supermarket
212,3001336208,1300,Langweidstrasse 8,47.4123954772949,9.35590171813965,4316.7,442.6,Westcenter,supermarket
213,3001336213,2340,Langweidstrasse 8,47.4123954772949,9.35590171813965,4316.7,442.6,Westcenter,supermarket
214,3001336410,1510,Zilweg 11,47.442626953125,9.40856456756592,11185.1,708.3,Westcenter,supermarket
215,3001337174,1300,Rickenstrasse 4,47.407772064209,9.33381938934326,3239.9,319.1,Westcenter,supermarket
216,3001337225,1440,Bernhardswiesstrasse 34,47.4072074890137,9.33975696563721,3441.9,341.9,Westcenter,supermarket
217,3001339504,1420,Hechtackerstrasse 12g,47.4076156616211,9.34005165100098,3562.6,354.2,Westcenter,supermarket
218,3001340922,1020,Walserstrasse 4,47.407413482666,9.33434104919434,3156.6,305.9,Westcenter,supermarket
219,3001342548,1250,Hüttenwiesstrasse 9,47.4386978149414,9.40172481536865,9233.8,607.3,Westcenter,supermarket
220,3001345530,1250,Brühlgasse 50,47.4246788024902,9.37870025634766,9134.5,785.9,Westcenter,supermarket
221,3001345902,1105,Schwalbenstrasse 10,47.427001953125,9.38384819030762,9131.7,603.0,Westcenter,supermarket
222,3001346082,1310,Langgasse 153,47.449104309082,9.39769840240479,10395.2,680.4,Westcenter,supermarket
223,3001346308,2790,Bubenbergstr. 4,47.4184036254883,9.37905502319336,8553.0,619.9,Westcenter,supermarket
224,3001346929,1340,Bernhardswiesstrasse 33,47.4071235656738,9.34114456176758,3989.0,394.8,Westcenter,supermarket
225,3001347558,1290,Brauerstrasse 1,47.4335517883301,9.39944362640381,8937.8,568.0,Westcenter,supermarket
226,3001347559,1300,Brauerstrasse 1,47.4335517883301,9.39944362640381,8937.8,568.0,Westcenter,supermarket
227,3001347688,850,Teufener Strasse 10,47.4206771850586,9.37107753753662,7468.2,495.6,Westcenter,supermarket
228,3001347881,1020,Farbgutstrasse 10,47.4352493286133,9.38732147216797,8505.5,521.0,Westcenter,supermarket
229,3001348433,1660,Sonnrainweg 8,47.4480819702148,9.39764785766602,10397.7,686.7,Westcenter,supermarket
230,3001349993,1020,Farbgutstrasse 10,47.4352493286133,9.38732147216797,8505.5,521.0,Westcenter,supermarket
231,3001350433,1300,Speicherstr. 29,47.4248085021973,9.38529205322266,8696.3,617.4,Westcenter,supermarket
232,3001350437,1300,Wiesentalstr. 14,47.4329490661621,9.39658451080322,8511.8,548.4,Westcenter,supermarket
233,3001350438,1240,Iddastrasse 22,47.4367256164551,9.38694858551025,8723.4,540.7,Westcenter,supermarket
234,3001350623,780,Volksbadstrasse 8,47.428596496582,9.38481998443604,8926.8,573.0,Westcenter,supermarket
235,3001350678,1695,Langgasse 9,47.434497833252,9.38464164733887,8483.1,501.5,Westcenter,supermarket
236,3001350682,1790,Grenzstrasse 1,47.4178848266602,9.35994911193848,4612.2,432.6,Westcenter,supermarket
237,3001352407,1515,Langgasse 13,47.4346694946289,9.38483333587646,8460.8,499.6,Westcenter,supermarket
238,3001354881,1801,Tablatstrasse 10,47.4377517700195,9.4197244644165,10538.3,594.5,Westcenter,supermarket
239,3001354883,1685,Tablatstrasse 10c,47.4372634887695,9.41964054107666,10774.8,615.5,Westcenter,supermarket
240,3001354885,1738,Tablatstrasse 10a,47.4375915527344,9.41968631744385,10527.4,599.5,Westcenter,supermarket
241,3001356526,1400,Zilstrasse 6,47.4408302307129,9.40460872650146,9841.5,684.9,Westcenter,supermarket
242,3001361663,1220,Ahornstrasse 23a,47.4143943786621,9.34685325622559,3525.1,323.5,Westcenter,supermarket
243,3001364371,1100,Steingrüeblistrasse 44,47.4266510009766,9.39069271087646,9460.0,640.7,Westcenter,supermarket
244,3001364396,1110,Steingrüeblistrasse 44,47.4266510009766,9.39069271087646,9460.0,640.7,Westcenter,supermarket
245,3001364411,1290,Steingrüeblistrasse 44,47.4266510009766,9.39069271087646,9460.0,640.7,Westcenter,supermarket
246,3001366539,1120,Flurhofstr. 149,47.4323463439941,9.40286731719971,9516.7,648.0,Westcenter,supermarket
247,3001367439,1240,Iddastrasse 52,47.4397201538086,9.38997077941895,9128.9,601.3,Westcenter,supermarket
248,3001367477,1440,Lukasstrasse 2,47.4394416809082,9.3950891494751,9218.0,599.5,Westcenter,supermarket
249,3001369138,1495,Rorschacher Strasse 124,47.4307746887207,9.39366340637207,8363.9,499.7,Westcenter,supermarket
250,3001369684,1290,Torstrasse 20,47.428035736084,9.37781524658203,7831.4,535.2,Westcenter,supermarket
251,3001369750,1396,Tablatstrasse 10c,47.4372634887695,9.41964054107666,10774.8,615.5,Westcenter,supermarket
252,3001369751,1290,Tablatstrasse 10c,47.4372634887695,9.41964054107666,10774.8,615.5,Westcenter,supermarket
253,3001370273,840,Höhenweg 11,47.429615020752,9.3725414276123,7953.6,556.5,Westcenter,supermarket
254,3001370626,1390,Wildeggstrasse 19,47.4235343933105,9.38277435302734,8699.9,655.6,Westcenter,supermarket
255,3001371343,1350,Sömmerlistrasse,47.4184989929199,9.35178279876709,4180.3,383.8,Westcenter,supermarket
256,3001372173,1660,Falkensteinstrasse 72,47.4314270019531,9.39884471893311,8852.1,574.5,Westcenter,supermarket
257,3001377914,1530,Linsebühlstrasse 14,47.4243087768555,9.38061618804932,8333.2,584.6,Westcenter,supermarket
258,3001378309,1550,Kugelgasse 3,47.4257469177246,9.37753963470459,8045.2,556.6,Westcenter,supermarket
259,3001379324,1700,Ullmannstrasse 23b,47.4129486083984,9.33236312866211,2858.7,286.4,Westcenter,supermarket
260,3001380381,1215,Rosenbergweg 21,47.4219932556152,9.36234951019287,6325.5,389.1,Westcenter,supermarket
261,3001380399,1350,Rosenbergweg 21,47.4219932556152,9.36234951019287,6325.5,389.1,Westcenter,supermarket
262,3001380521,785,Pelikanstrasse 21,47.4372100830078,9.39230251312256,8881.0,559.5,Westcenter,supermarket
263,3001380606,785,Burgstrasse 19,47.4193916320801,9.36352825164795,4938.2,459.9,Westcenter,supermarket
264,3001380667,1360,Rickenstrasse 20,47.4074401855469,9.33251190185547,3343.7,334.1,Westcenter,supermarket
265,3001380921,710,Ruhbergstrasse 48,47.4149131774902,9.36348438262939,5480.3,543.3,Westcenter,supermarket
266,3001381315,1350,Sonnrainweg 14,47.4475479125977,9.39769744873047,10457.2,695.3,Westcenter,supermarket
267,3001382303,1730,Kesselhaldenstrasse 6,47.4384689331055,9.40322494506836,9375.5,613.5,Westcenter,supermarket
268,3001382682,2450,St Georgen Str. 20,47.4228096008301,9.38051223754883,8565.1,642.8,Westcenter,supermarket
269,3001383681,1140,Bedastrasse 11,47.4286613464355,9.39088344573975,8664.6,562.9,Westcenter,supermarket
270,3001384071,1440,Hechtackerstrasse 12d,47.4075241088867,9.33936977386475,3396.2,330.9,Westcenter,supermarket
271,3001385146,650,Brauerstrasse 3,47.4337310791016,9.39962577819824,8949.9,570.9,Westcenter,supermarket
272,3001385241,1600,Ludwigstr. 15,47.4408416748047,9.37835311889648,9523.3,619.4,Westcenter,supermarket
273,3001385255,1430,Langgasse 159,47.4499473571777,9.39748668670654,10485.8,688.5,Westcenter,supermarket
274,3001385379,1919,Vogelherdstr. 17,47.4366302490234,9.41966819763184,10807.9,618.5,Westcenter,supermarket
275,3001386086,1290,Zilstrasse 10,47.4411582946777,9.40502548217773,9825.0,680.9,Westcenter,supermarket
276,3001387524,890,Oberstrasse 65,47.416748046875,9.36429977416992,5088.4,475.7,Westcenter,supermarket
277,3001387933,1920,Ullmannstrasse 23a,47.4133110046387,9.33245658874512,3023.8,304.8,Westcenter,supermarket
278,3001389161,1100,Rosenbergstrasse 64,47.4233627319336,9.36717796325684,6815.5,435.1,Westcenter,supermarket
279,3001389165,1190,Helvetiastrasse 51,47.4341926574707,9.39534091949463,8650.8,579.9,Westcenter,supermarket
280,3001389167,1750,Obere Büschenstrasse 10,47.4247970581055,9.38028240203857,8287.4,583.3,Westcenter,supermarket
281,3001389168,2190,Fürstenlandstrasse 135,47.4106826782227,9.33879375457764,2893.9,293.2,Westcenter,supermarket
282,3001389931,1200,Neugasse 35,47.4247093200684,9.37479877471924,7650.5,529.5,Westcenter,supermarket
283,3001390742,1840,Lukasstrasse 41,47.4388809204102,9.40090847015381,9238.1,600.6,Westcenter,supermarket
284,3001394636,1470,Leuenbergerstrasse 2,47.4173431396484,9.34955787658691,3992.7,382.2,Westcenter,supermarket
285,3001394899,1310,Langgasse 157,47.4497146606445,9.39772891998291,10461.9,686.4,Westcenter,supermarket
286,3001394909,1560,Favrestrasse 19,47.437198638916,9.41196441650391,10910.0,645.5,Westcenter,supermarket
287,3001396200,1540,Lehnstrasse 104a,47.4062080383301,9.3261137008667,1929.0,216.5,Westcenter,supermarket
288,3001396208,1090,Brauerstr. 47,47.4372138977051,9.40369892120361,9415.2,624.7,Westcenter,supermarket
289,3001397727,1180,Zweibruggenmühlestrasse 5,47.4071960449219,9.32706451416016,2004.7,211.9,Westcenter,supermarket
290,3001398196,1550,Lukasstrasse 36a,47.4386253356934,9.39911842346191,9409.3,631.9,Westcenter,supermarket
291,3001398462,1500,Linsebühlstrasse 99,47.4259910583496,9.38535594940186,9207.7,609.2,Westcenter,supermarket
292,3001400894,1825,Schönbüelpark 7,47.4410133361816,9.41225528717041,10695.4,630.8,Westcenter,supermarket
293,3001402706,1010,Domänenstrasse 3,47.440860748291,9.39433193206787,9379.7,617.0,Westcenter,supermarket
294,3001402756,1480,Dufourstrasse 153,47.4226188659668,9.35810947418213,4995.1,466.1,Westcenter,supermarket
295,3001403510,1540,Burgstrasse 31,47.4190368652344,9.36180973052979,4834.1,461.4,Westcenter,supermarket
296,3001403636,690,Löwengasse,47.4253807067871,9.37762355804443,8076.4,559.4,Westcenter,supermarket
297,3001403823,855,Vonwilstrasse 51,47.4194450378418,9.35537147521973,4490.8,421.8,Westcenter,supermarket
298,3001404034,1490,Tablatstr. 12,47.4376907348633,9.42048072814941,10595.1,599.5,Westcenter,supermarket
299,3001404132,1200,Treuackerstrasse 34,47.415397644043,9.36264228820801,7934.8,560.3,Westcenter,supermarket
300,3001404387,1430,Burenbüchelstr. 11,47.4361267089844,9.41000270843506,9926.5,670.7,Westcenter,supermarket
301,3001404411,1897,Feldlistr. 7,47.4215202331543,9.35657405853271,4765.2,438.1,Westcenter,supermarket
302,3001405131,890,Achslenstr. 1,47.4336280822754,9.41360855102539,9991.4,658.3,Westcenter,supermarket
303,3001405132,1420,Tannenstr. 44,47.4366645812988,9.37887763977051,8630.4,615.5,Westcenter,supermarket
304,3001405208,1450,Hechtackerstrasse 14a,47.4082489013672,9.3399715423584,3457.3,322.8,Westcenter,supermarket
305,3001406256,890,Helvetiastrasse 41,47.4332618713379,9.3950719833374,8454.9,539.4,Westcenter,supermarket
306,3001406265,1170,Burenbüchelstrasse 18a,47.4357681274414,9.41106510162354,10046.3,695.8,Westcenter,supermarket
307,3001407281,795,Metzgergasse 29,47.4272117614746,9.37481021881104,7569.6,516.0,Westcenter,supermarket
308,3001407405,1590,Obere Berneggstrasse 79,47.4128341674805,9.36686229705811,8345.1,585.9,Westcenter,supermarket
309,3001407521,770,Rappensteinweg 3,47.4325866699219,9.40242767333984,9210.3,633.5,Westcenter,supermarket
310,3001408605,1400,Kreuzbleichestrasse 7,47.4201011657715,9.35677814483643,4617.4,447.3,Westcenter,supermarket
311,3001408867,1290,Engelgasse 5,47.4263572692871,9.3745059967041,9750.0,634.2,Westcenter,supermarket
312,3001409150,749,Spiessergasse 43,47.4244956970215,9.37917041778564,9134.5,785.9,Westcenter,supermarket
313,3001409151,749,Spiessergasse 43,47.4244956970215,9.37917041778564,9134.5,785.9,Westcenter,supermarket
314,3001410662,1120,Flurhofstr. 155,47.4323310852051,9.40382099151611,9451.0,615.2,Westcenter,supermarket
315,3001412186,1730,Ahornstrasse 23a,47.4143943786621,9.34685325622559,3525.1,323.5,Westcenter,supermarket
316,3001412963,1240,Langgasse 36,47.4360466003418,9.38742446899414,8579.2,528.7,Westcenter,supermarket
317,3001413248,929,Buchentalstrasse 6,47.4335479736328,9.39856815338135,8899.3,557.8,Westcenter,supermarket
318,3001413398,1250,Speicherstr. 25,47.4247360229492,9.38468456268311,8649.9,613.2,Westcenter,supermarket
319,3001413400,1300,Wiesentalstr. 12,47.4329223632812,9.39637470245361,8496.0,546.0,Westcenter,supermarket
320,3001413836,1370,Bernhardswiesstrasse 11,47.4083480834961,9.34207916259766,3755.3,360.9,Westcenter,supermarket
321,3001414565,1270,Furglerstr. 8,47.4221458435059,9.35859775543213,5165.8,497.1,Westcenter,supermarket
322,3001415388,855,Zürcher Strasse 70,47.4174957275391,9.35018253326416,3975.0,361.5,Westcenter,supermarket
323,3001415640,1820,Burenbüchelstrasse 16,47.4356880187988,9.41069984436035,9953.1,674.6,Westcenter,supermarket
324,3001416060,690,Linsebühlstrasse 66,47.4248428344727,9.38330936431885,8548.7,610.2,Westcenter,supermarket
325,3001416181,1040,Stationsweg 6,47.4076118469238,9.32946395874023,2509.0,253.0,Westcenter,supermarket
326,3001416434,300,Girtannerstrasse 19,47.4355659484863,9.37706089019775,8542.1,611.7,Westcenter,supermarket
327,3001416435,4400,Girtannerstrasse 19,47.4355659484863,9.37706089019775,8542.1,611.7,Westcenter,supermarket
328,3001416436,300,Girtannerstrasse 19,47.4355659484863,9.37706089019775,8542.1,611.7,Westcenter,supermarket
329,3001416883,650,Stauffacherstrasse 7,47.4234428405762,9.36355876922607,7409.1,523.3,Westcenter,supermarket
330,3001418295,1600,St. Leonhard-Strasse 79,47.4210205078125,9.36458396911621,6642.4,429.9,Westcenter,supermarket
331,3001425963,1390,Iddastrasse 41,47.4391632080078,9.38868999481201,9026.0,585.9,Westcenter,supermarket
332,3001422307,1320,Langgasse 92,47.4403915405273,9.39240264892578,9277.4,577.5,Westcenter,supermarket
333,3001419785,1790,Hagenbuchstrasse 31,47.4297485351562,9.40007019042969,9255.1,616.1,Westcenter,supermarket
334,3001443923,2090,Lukasstrasse 41,47.4388809204102,9.40090847015381,9238.1,600.6,Westcenter,supermarket
335,3001447249,1595,Burenbüchelstr. 11,47.4361267089844,9.41000270843506,9926.5,670.7,Westcenter,supermarket
336,3001452012,1395,Rosenbergweg 19,47.4218940734863,9.36297130584717,6794.3,449.8,Westcenter,supermarket
337,3001454132,1200,Langgasse 46,47.4370613098145,9.38827133178711,8790.4,533.5,Westcenter,supermarket
338,3001454155,1360,Langgasse 46,47.4370613098145,9.38827133178711,8790.4,533.5,Westcenter,supermarket
339,3001418253,1900,Oberstrasse 218,47.4120750427246,9.34844779968262,3705.5,353.3,Westcenter,supermarket
340,3001419783,1490,Hagenbuchstrasse 31a,47.4298248291016,9.40028095245361,9269.9,618.3,Westcenter,supermarket
341,3001457002,850,Linsebühlstrasse 66,47.4248428344727,9.38330936431885,8548.7,610.2,Westcenter,supermarket
342,3001457010,1300,Linsebühlstrasse 16,47.4243240356445,9.38075637817383,8343.9,585.5,Westcenter,supermarket
343,3001457042,1390,Vonwilstrasse 51,47.4194450378418,9.35537147521973,4490.8,421.8,Westcenter,supermarket
344,3001456554,1500,Rorschacher Strasse 155,47.4317054748535,9.39577102661133,8549.8,516.4,Westcenter,supermarket
345,3001457039,1570,Feldbachstrasse 4,47.4211158752441,9.35555934906006,4628.9,437.4,Westcenter,supermarket
346,3001421370,1340,Iddastrasse,47.4354095458984,9.38514137268066,8521.6,510.4,Westcenter,supermarket
347,3001457041,2445,Vonwilstrasse 51,47.4194450378418,9.35537147521973,4490.8,421.8,Westcenter,supermarket
348,3001465079,790,Lustgartenstrasse 14,47.421028137207,9.3643627166748,6684.0,445.2,Westcenter,supermarket
349,3001465093,1050,Dietlistrasse 35,47.4257621765137,9.36223983764648,5886.3,355.5,Westcenter,supermarket
350,3001465787,1305,Spyristrasse 9,47.4368362426758,9.39242649078369,8847.5,556.7,Westcenter,supermarket
351,3001465804,1550,Teufener Strasse 123,47.4134178161621,9.36389064788818,8045.7,552.9,Westcenter,supermarket
352,3001467360,2630,Goethestrasse 44,47.4369812011719,9.38311100006104,8857.7,543.9,Westcenter,supermarket
353,3001468698,700,Sonnenhaldenstrasse 10b,47.4414405822754,9.39097785949707,9630.7,609.7,Westcenter,supermarket
354,3001468697,1670,Hechtackerstrasse 14a,47.4082489013672,9.3399715423584,3457.3,322.8,Westcenter,supermarket
355,3001468690,1490,Schönbüelpark 12,47.4396553039551,9.41220855712891,10664.6,628.1,Westcenter,supermarket
356,3001468678,1570,Hubertusstr. 2,47.4333152770996,9.40306282043457,9166.2,587.4,Westcenter,supermarket
357,3001413023,1343,Schönauweg 9,47.4179878234863,9.34551239013672,4072.4,384.6,Westcenter,supermarket
358,3001315315,1340,Feldbachstrasse 7,47.4210090637207,9.3557186126709,4631.1,437.8,Westcenter,supermarket
359,3001004255,1325,Poststrasse 16,47.4245719909668,9.37232494354248,7774.2,541.5,Westcenter,supermarket
360,3001304110,1325,Linsebühlstrasse 103,47.4261894226074,9.38566780090332,9175.5,604.3,Westcenter,supermarket
361,3001422233,1200,Feldlistrasse 17,47.4221534729004,9.35547733306885,4873.8,448.0,Westcenter,supermarket
362,3001423044,1200,Falkensteinstrasse 10,47.4299011230469,9.39220905303955,8492.9,530.3,Westcenter,supermarket
363,3001426743,1680,Kreuzbleichestrasse 7,47.4201011657715,9.35677814483643,4617.4,447.3,Westcenter,supermarket
364,3001445103,1300,Teufener Strasse 150,47.4106788635254,9.36655139923096,8457.2,586.9,Westcenter,supermarket
365,3001447741,2110,Wattstrasse 11,47.4105110168457,9.36919021606445,8640.0,623.7,Westcenter,supermarket
366,3001452236,1662,Sonnrainweg 14,47.4475479125977,9.39769744873047,10457.2,695.3,Westcenter,supermarket
367,3001454343,718,Tablatstrasse 30b,47.4368362426758,9.41854095458984,10864.3,623.5,Westcenter,supermarket
368,3001454430,1280,Brühlgasse 50,47.4246788024902,9.37870025634766,9134.5,785.9,Westcenter,supermarket
369,3001055869,1095,Bedastrasse 11,47.4286613464355,9.39088344573975,8664.6,562.9,Westcenter,supermarket
370,3001457144,1430,Burenbüchelstr. 11,47.4361267089844,9.41000270843506,9926.5,670.7,Westcenter,supermarket
371,3001465235,2630,Goethestrasse 44,47.4369812011719,9.38311100006104,8857.7,543.9,Westcenter,supermarket
372,3001466297,1290,Iddastrasse 60,47.4403495788574,9.39087867736816,9233.1,617.1,Westcenter,supermarket
373,3001466304,1460,Achslenstr. 1,47.4336280822754,9.41360855102539,9991.4,658.3,Westcenter,supermarket
374,3001467983,830,Vonwilstrasse 51,47.4194450378418,9.35537147521973,4490.8,421.8,Westcenter,supermarket
375,3001469403,990,Rorschacher Strasse 229,47.435791015625,9.40303707122803,9272.2,589.3,Westcenter,supermarket
376,3001469080,642,Zwyssigstrasse 20,47.4219284057617,9.34619235992432,4630.5,417.7,Westcenter,supermarket
377,3001469480,1660,Heiligkreuzstrasse 53,47.4404067993164,9.3939847946167,9321.7,605.4,Westcenter,supermarket
378,3001469549,1080,Brühlbleichestrasse 10,47.4305038452148,9.38340282440186,8773.1,586.6,Westcenter,supermarket
379,3001319737,1090,Engelwiesstrasse 5c,47.4123153686523,9.33105659484863,2532.6,242.6,Westcenter,supermarket
380,3001380668,890,Rickenstrasse 20,47.4074401855469,9.33251190185547,3343.7,334.1,Westcenter,supermarket
381,3001180367,890,Wolfgangstrasse 67,47.4027519226074,9.33110809326172,4405.9,462.6,Westcenter,supermarket
382,3001424552,1750,Langweidstrasse 2,47.4125061035156,9.35506057739258,4251.3,432.8,Westcenter,supermarket
383,3001418517,1450,Rappensteinstrasse 10,47.4308242797852,9.39835739135742,9220.7,607.7,Westcenter,supermarket
384,3001419698,1430,Burenbüchelstr. 11,47.4361267089844,9.41000270843506,9926.5,670.7,Westcenter,supermarket
385,3001440025,900,Teufener Strasse 100,47.4150390625,9.36435222625732,7851.5,535.5,Westcenter,supermarket
386,3001439654,890,Brauerstrasse 5,47.4337387084961,9.39980602264404,8959.8,563.2,Westcenter,supermarket
387,3001423019,1380,Buchwaldstrasse 2,47.4361724853516,9.39269924163818,8757.4,543.6,Westcenter,supermarket
388,3001440057,1720,Favrestrasse 17,47.4372520446777,9.41258144378662,10853.9,631.4,Westcenter,supermarket
389,3001424963,1375,Kolosseumstr. 10,47.4369201660156,9.3914966583252,8958.7,573.0,Westcenter,supermarket
390,3001437299,1690,Brauerstrasse 79a,47.4423408508301,9.40994739532471,10606.1,627.3,Westcenter,supermarket
391,3001440049,1901,Vogelherdstr. 7c,47.4363670349121,9.419264793396,10852.1,622.5,Westcenter,supermarket
392,3001439759,980,Feldlistrasse 19,47.4223251342773,9.35517120361328,4903.5,450.6,Westcenter,supermarket
393,3001435737,1825,Schönbüelpark 7,47.4410133361816,9.41225528717041,10695.4,630.8,Westcenter,supermarket
394,3001434755,1370,Ackerstrasse 1,47.4280204772949,9.38988304138184,8728.8,560.1,Westcenter,supermarket
395,3001434314,1190,Ackerstrasse 1,47.4280204772949,9.38988304138184,8728.8,560.1,Westcenter,supermarket
396,3001434328,1430,Brauerstr. 15,47.4345664978027,9.40053081512451,9055.6,577.4,Westcenter,supermarket
397,3001434327,1540,Ilgenstr. 59,47.4158515930176,9.35661315917969,4429.0,421.6,Westcenter,supermarket
398,3001434318,1650,Multergasse 11,47.4243392944336,9.37596130371094,8897.9,729.3,Westcenter,supermarket
399,3001422111,1590,Reherstr. 19,47.4371223449707,9.41578769683838,10798.8,640.2,Westcenter,supermarket
400,3001435754,1220,Brühlbleichestrasse,47.4301338195801,9.3830680847168,8821.4,593.8,Westcenter,supermarket
401,3001435724,1400,Fidesstrasse 12,47.4321784973145,9.39260673522949,8170.4,495.1,Westcenter,supermarket
402,3001440807,1670,Hechtackerstrasse 12d,47.4075241088867,9.33936977386475,3396.2,330.9,Westcenter,supermarket
403,3001418917,1550,Zilweg 11,47.442626953125,9.40856456756592,11185.1,708.3,Westcenter,supermarket
404,3001430996,975,Burgstrasse 21,47.4193382263184,9.36314487457275,4907.9,455.3,Westcenter,supermarket
405,3001382329,1500,Otmarstrasse 17,47.4168815612793,9.35732173919678,4381.1,403.9,Westcenter,supermarket
406,3001430350,2900,Dufourstrasse 114,47.423885345459,9.3627347946167,5374.9,523.1,Westcenter,supermarket
407,3001430376,1350,Helvetiastrasse 54,47.4345283508301,9.39608287811279,8670.0,563.5,Westcenter,supermarket
408,3001433230,1490,Solitüdenstrasse 1,47.4126167297363,9.36404991149902,8149.6,569.3,Westcenter,supermarket
409,3001433974,1100,Brauerstrasse 34,47.4358978271484,9.40302085876465,9320.8,606.7,Westcenter,supermarket
410,3001432475,2010,Ullmannstrasse 27,47.4132843017578,9.33195877075195,3023.8,304.8,Westcenter,supermarket
411,3001433716,1520,Oberstrasse 255,47.408634185791,9.34397888183594,4265.8,434.5,Westcenter,supermarket
412,3001425535,1390,Buchwaldstrasse 2,47.4361724853516,9.39269924163818,8757.4,543.6,Westcenter,supermarket
413,3001432479,1410,Furglerstr. 14,47.422290802002,9.35991764068604,5261.2,511.4,Westcenter,supermarket
414,3001440543,750,Burgstrasse 80,47.4170188903809,9.35645389556885,4320.1,394.8,Westcenter,supermarket
415,3001441668,1285,Langgasse 11,47.4346084594727,9.38476085662842,8469.4,500.4,Westcenter,supermarket
416,3001441671,1990,Langgasse 11,47.4346084594727,9.38476085662842,8469.4,500.4,Westcenter,supermarket
417,3001441669,1815,Langgasse 9,47.434497833252,9.38464164733887,8483.1,501.5,Westcenter,supermarket
418,3001445240,1590,Hagenbuchstrasse 10,47.4311408996582,9.3983097076416,9222.6,606.0,Westcenter,supermarket
419,3001385698,1630,Altwinkelnstrasse 17,47.4021606445312,9.30312728881836,740.3,104.9,Westcenter,supermarket
420,3001321804,1630,Quimbystrasse 7,47.4001235961914,9.29899501800537,1238.9,161.4,Westcenter,supermarket
421,3001251668,1590,Altwinkelnstrasse 15,47.4022254943848,9.30288410186768,809.1,102.7,Westcenter,supermarket
422,3001170136,1510,Kunklerstrasse 1,47.4062309265137,9.30460929870605,91.6,19.9,Westcenter,supermarket
423,3001353330,1435,Sonnmattstrasse 33,47.4070587158203,9.31648921966553,1153.5,136.9,Westcenter,supermarket
424,3001079915,1390,Kräzernstrasse 30,47.4067420959473,9.32085132598877,1389.1,144.7,Westcenter,supermarket
425,3001442027,1350,Röschstrasse 14,47.4317283630371,9.39998435974121,8984.3,599.6,Westcenter,supermarket
426,3001448678,2150,Quimbystrasse 7,47.4001235961914,9.29899501800537,1238.9,161.4,Westcenter,supermarket
427,3001448697,970,Engelgasse 12,47.426586151123,9.37471008300781,9727.3,629.1,Westcenter,supermarket
428,3001448481,1190,Langgasse 61,47.4383544921875,9.38934993743896,8952.9,548.1,Westcenter,supermarket
429,3001452624,1660,Zilstrasse 20,47.4422225952148,9.40559959411621,10958.8,678.3,Westcenter,supermarket
430,3001466592,1560,Martinsbruggstrasse 34,47.4364395141602,9.4097261428833,9817.0,648.9,Westcenter,supermarket
431,3001466596,1440,Langgasse 36,47.4360466003418,9.38742446899414,8579.2,528.7,Westcenter,supermarket
432,3001466589,1190,Langgasse 61,47.4383544921875,9.38934993743896,8952.9,548.1,Westcenter,supermarket
433,3001468333,840,Rorschacher Strasse 183,47.4329643249512,9.39859294891357,8811.6,539.8,Westcenter,supermarket
434,3001469691,1390,Treuackerstrasse 34,47.415397644043,9.36264228820801,7934.8,560.3,Westcenter,supermarket
435,3001434052,1150,Buchentalstrasse 23,47.4346313476562,9.39625358581543,8627.8,549.6,Westcenter,supermarket
436,3001446651,1550,Zilweg 11,47.442626953125,9.40856456756592,11185.1,708.3,Westcenter,supermarket
437,3001450273,1730,Kunklerstrasse 1,47.4062309265137,9.30460929870605,91.6,19.9,Westcenter,supermarket
438,3001449586,890,Gartenstrasse 5,47.4217529296875,9.37387847900391,8032.6,570.1,Westcenter,supermarket
439,3001449308,1825,Schönbüelpark 7,47.4410133361816,9.41225528717041,10695.4,630.8,Westcenter,supermarket
440,3001449527,1220,Brühlbleichestrasse 10,47.4305038452148,9.38340282440186,8773.1,586.6,Westcenter,supermarket
441,3001449478,1170,Bogenstrasse 15,47.4191741943359,9.36273384094238,4896.4,458.8,Westcenter,supermarket
442,3001449876,1750,Salisstr. 18,47.4187889099121,9.35576725006104,4497.1,420.0,Westcenter,supermarket
443,3001453376,757,Vogelherdstr. 7c,47.4363670349121,9.419264793396,10852.1,622.5,Westcenter,supermarket
444,3001455222,1060,Hochwachtstrasse 1,47.413257598877,9.36318778991699,8099.2,565.0,Westcenter,supermarket
445,3001457663,890,Berneggstr. 52,47.419017791748,9.37270641326904,8146.6,582.4,Westcenter,supermarket
446,3001457658,1450,Iddastrasse 58,47.4402656555176,9.39069080352783,9215.5,614.4,Westcenter,supermarket
447,3001457657,1090,Tschudistr. 17,47.4172973632812,9.36594772338867,8184.6,618.6,Westcenter,supermarket
448,3001457662,1390,Krontalstr. 13,47.4327812194824,9.39970684051514,9056.1,584.8,Westcenter,supermarket
449,3001427562,1825,Schönbüelpark 7,47.4410133361816,9.41225528717041,10695.4,630.8,Westcenter,supermarket
450,3001460383,1170,Domänenstrasse 3,47.440860748291,9.39433193206787,9379.7,617.0,Westcenter,supermarket
451,3001460403,1825,Schönbüelpark 7,47.4410133361816,9.41225528717041,10695.4,630.8,Westcenter,supermarket
452,3001460593,1360,Helvetiastrasse 54,47.4345283508301,9.39608287811279,8670.0,563.5,Westcenter,supermarket
453,3001460566,950,Oberstrasse 65,47.416748046875,9.36429977416992,5088.4,475.7,Westcenter,supermarket
454,3001463476,890,Berneggstr. 52,47.419017791748,9.37270641326904,8146.6,582.4,Westcenter,supermarket
455,3001462816,1690,Zilweg 14,47.4418754577637,9.4097900390625,10001.8,698.6,Westcenter,supermarket
456,3001442121,1550,Langgasse 5,47.4342079162598,9.38436317443848,8521.1,504.9,Westcenter,supermarket
457,3001446965,1500,Guggeienhof 1a,47.4468307495117,9.40468502044678,10379.4,721.6,Westcenter,supermarket
458,3001451369,990,Helvetiastrasse 41,47.4332618713379,9.3950719833374,8454.9,539.4,Westcenter,supermarket
459,3001464617,1070,Tigerbergstrasse 2,47.4277496337891,9.37399578094482,7571.8,513.4,Westcenter,supermarket
460,3001463609,1390,Dreilindenhang 4,47.422737121582,9.38334083557129,9194.5,694.3,Westcenter,supermarket
461,3001464185,1590,Spisergasse 29,47.4246368408203,9.37842750549316,9037.2,764.0,Westcenter,supermarket
462,3001462415,1690,Büchelstrasse 4,47.4205780029297,9.36482524871826,6764.8,458.1,Westcenter,supermarket
463,3001462510,1780,Sternackerstrasse 5,47.4262962341309,9.38365173339844,9182.5,591.3,Westcenter,supermarket
464,3001464371,1825,Magniberg 4,47.429313659668,9.37764644622803,7941.1,550.2,Westcenter,supermarket
465,3001464187,2300,Furglerstr. 14,47.422290802002,9.35991764068604,5261.2,511.4,Westcenter,supermarket
466,3001464415,1220,Brühlbleichestrasse,47.4301338195801,9.3830680847168,8821.4,593.8,Westcenter,supermarket
467,3001466856,1180,Langweidstrasse 4,47.4123268127441,9.35518360137939,4260.9,434.3,Westcenter,supermarket
468,3001468413,1590,Langgasse 153,47.449104309082,9.39769840240479,10395.2,680.4,Westcenter,supermarket
469,3001470583,2150,Dufourstrasse 4,47.4352416992188,9.38398742675781,8539.4,508.5,Westcenter,supermarket
470,3001442287,1380,Treuackerstrasse 34,47.415397644043,9.36264228820801,7934.8,560.3,Westcenter,supermarket
471,3001451526,940,Engelgasse 8,47.4263572692871,9.37482452392578,9781.1,648.6,Westcenter,supermarket
472,3001451843,1380,Wiesentalstr. 14,47.4329490661621,9.39658451080322,8511.8,548.4,Westcenter,supermarket
473,3001451857,1670,Rehburgstrasse 1,47.4315147399902,9.39706230163574,8758.9,562.7,Westcenter,supermarket
474,3001454103,1180,Langgasse 46,47.4370613098145,9.38827133178711,8790.4,533.5,Westcenter,supermarket
475,3001454127,1590,Langgasse 46,47.4370613098145,9.38827133178711,8790.4,533.5,Westcenter,supermarket
476,3001456385,740,Rehetobelstr. 2,47.4330062866211,9.39983940124512,8915.4,561.1,Westcenter,supermarket
477,3001456527,840,Rorschacher Strasse 183,47.4329643249512,9.39859294891357,8811.6,539.8,Westcenter,supermarket
478,3001456492,1660,Brauerstrasse 85b,47.4431800842285,9.4091739654541,10678.3,651.8,Westcenter,supermarket
479,3001461360,1960,Fürstenlandstrasse 19,47.4148483276367,9.35318183898926,3982.2,364.6,Westcenter,supermarket
480,3001465599,1240,Moosbruggstrasse 5,47.4236755371094,9.37952136993408,8374.3,589.9,Westcenter,supermarket
481,3001467270,890,Burgstrasse 80,47.4170188903809,9.35645389556885,4320.1,394.8,Westcenter,supermarket
482,3001468434,1660,Falkensteinstrasse 72,47.4314270019531,9.39884471893311,8852.1,574.5,Westcenter,supermarket
483,3001470695,1340,Höhenweg 13,47.4295043945312,9.37237071990967,7971.6,559.2,Westcenter,supermarket
484,3001470708,1835,Linsebühlstrasse 99,47.4259910583496,9.38535594940186,9207.7,609.2,Westcenter,supermarket
485,108761792,1745,Berneggstrasse 28,47.4208984375,9.37622547149658,3115.5,399.9,Migros,supermarket
486,2147994348,1720,Heiligkreuzstrasse 53,47.4404067993164,9.3939847946167,1117.6,184.3,Migros,supermarket
487,3000166218,1150,Lindenstrasse 76,47.4330558776855,9.39382934570312,1053.9,168.1,Migros,supermarket
488,3000251780,1390,Feldlistrasse 11,47.4216995239258,9.35613536834717,4836.5,424.0,Migros,supermarket
489,3000402506,2130,Goliathgasse 37,47.4279747009277,9.37712287902832,2050.5,271.2,Migros,supermarket
490,3000538335,1330,Oberstrasse 87,47.4164085388184,9.36261463165283,3906.1,438.1,Migros,supermarket
491,3000688515,1200,Langgasse 155,47.449348449707,9.39771270751953,2226.6,288.6,Migros,supermarket
492,3000780700,1120,Oberstrasse 123,47.4147109985352,9.35912609100342,4235.9,468.0,Migros,supermarket
493,3000830705,1540,Sonnrainweg 6,47.4482727050781,9.39763641357422,2181.5,289.4,Migros,supermarket
494,3000836173,1090,Langgasse 89,47.4400329589844,9.39156341552734,1143.7,191.3,Migros,supermarket
495,3000861228,1540,Sonnrainweg 12,47.4477005004883,9.39766311645508,2245.5,298.6,Migros,supermarket
496,3000872761,1180,Linsebühlstrasse 16,47.4243240356445,9.38075637817383,2410.0,291.7,Migros,supermarket
497,3000873636,1640,Ludwigstr. 21,47.4412498474121,9.37837314605713,2112.2,283.8,Migros,supermarket
498,3000873652,900,Tschudistr. 36,47.4163856506348,9.36409378051758,4153.4,484.6,Migros,supermarket
499,3000873750,1150,St. Georgen-Str. 39,47.4195594787598,9.37901306152344,3648.2,460.6,Migros,supermarket
500,3000888275,1240,Langgasse 70,47.4388046264648,9.39048862457275,986.4,177.2,Migros,supermarket
501,3000922116,1454,Dianastrasse 10,47.4327964782715,9.38241004943848,1235.3,186.2,Migros,supermarket
502,3000924363,790,Brauerstrasse 5,47.4337387084961,9.39980602264404,1173.6,196.1,Migros,supermarket
503,3000929497,1250,Eisengasse 3,47.4253387451172,9.38271808624268,2596.4,316.7,Migros,supermarket
504,3000939647,1550,Ludwigstr. 17,47.4409484863281,9.37808418273926,2072.3,277.9,Migros,supermarket
505,3000943788,1370,Buchentalstrasse 5,47.4334945678711,9.39832019805908,975.8,161.7,Migros,supermarket
506,3000946773,1540,Langgasse 92,47.4403915405273,9.39240264892578,1214.5,197.7,Migros,supermarket
507,3000946809,1400,Feldbachstrasse 10,47.4207611083984,9.3547191619873,5008.4,452.4,Migros,supermarket
508,3000955021,2120,Sonnenhaldenstrasse 64,47.4397735595703,9.38191032409668,1630.2,210.4,Migros,supermarket
509,3000969216,910,Helvetiastrasse 41,47.4332618713379,9.3950719833374,938.4,162.0,Migros,supermarket
510,3000975218,1400,Schwalbenstrasse 10,47.427001953125,9.38384819030762,2275.9,319.5,Migros,supermarket
511,3000976414,1150,St. Georgen-Str. 39,47.4195594787598,9.37901306152344,3648.2,460.6,Migros,supermarket
512,3000981079,1690,Altmannstrasse 18,47.4130172729492,9.36433792114258,4209.9,471.8,Migros,supermarket
513,3000999080,1500,Bernhardswiesstrasse 9,47.4086647033691,9.34245109558105,5737.8,609.6,Migros,supermarket
514,3000999081,1070,Bernhardswiesstrasse 11,47.4083480834961,9.34207916259766,5760.4,611.9,Migros,supermarket
515,3001014618,1860,Isenringweg 3,47.420238494873,9.35236835479736,5232.8,471.0,Migros,supermarket
516,3001016630,1290,Langgasse 165,47.4505348205566,9.39797592163086,2356.6,300.2,Migros,supermarket
517,3001027277,1790,Stahlstr. 5,47.4210357666016,9.35638999938965,5135.9,468.2,Migros,supermarket
518,3001030845,1610,Burgstrasse 64,47.4174880981445,9.35832500457764,3841.2,437.4,Migros,supermarket
519,3001030847,1380,Burgstrasse 64,47.4174880981445,9.35832500457764,3841.2,437.4,Migros,supermarket
520,3001030848,1900,Burgstrasse 64,47.4174880981445,9.35832500457764,3841.2,437.4,Migros,supermarket
521,3001031567,1390,Zilstrasse 4a,47.4408798217773,9.4041633605957,1890.9,248.4,Migros,supermarket
522,3001042243,1350,Bleichestrasse 11,47.4216804504395,9.37221050262451,2942.8,348.8,Migros,supermarket
523,3001042251,1490,Achslenstr. 5,47.4326629638672,9.41385936737061,2265.3,307.7,Migros,supermarket
524,3001042300,1290,Zilstrasse 14,47.4414825439453,9.40545177459717,2157.4,299.1,Migros,supermarket
525,3001052159,2000,Kirchlistrasse 1,47.4400367736816,9.37997150421143,1790.8,237.4,Migros,supermarket
526,3001052160,1100,Kirchlistrasse 1,47.4400367736816,9.37997150421143,1790.8,237.4,Migros,supermarket
527,3001077557,990,Grossackerstr. 10,47.4292640686035,9.39270114898682,1701.8,253.4,Migros,supermarket
528,3001077667,760,Sonnrainweg 6,47.4482727050781,9.39763641357422,2181.5,289.4,Migros,supermarket
529,3001077672,1270,Langgasse 163,47.4503021240234,9.39786911010742,2331.0,297.9,Migros,supermarket
530,3001082656,1070,Langgasse 63,47.4384689331055,9.3895092010498,1109.8,196.3,Migros,supermarket
531,3001091170,1620,Tablatstr. 12,47.4376907348633,9.42048072814941,3074.4,369.6,Migros,supermarket
532,3001093133,1590,Spisergasse 27,47.4246826171875,9.37836074829102,3097.1,468.8,Migros,supermarket
533,3001095313,1350,Vogelherdstrasse 19,47.4366264343262,9.42048454284668,2941.4,395.1,Migros,supermarket
534,3001096690,1620,Demutstrasse 7,47.4175682067871,9.38098335266113,3971.5,491.6,Migros,supermarket
535,3001096691,1590,Demutstrasse 7,47.4175682067871,9.38098335266113,3971.5,491.6,Migros,supermarket
536,3001100107,1150,Glaserstrasse 3A,47.4188766479492,9.35424995422363,5052.9,444.4,Migros,supermarket
537,3001102989,1180,Büchelstrasse 4,47.4205780029297,9.36482524871826,3301.1,395.8,Migros,supermarket
538,3001111355,1450,Zilweg 7,47.442310333252,9.40835094451904,2333.4,314.9,Migros,supermarket
539,3001117101,1390,Feldbachstrasse 10,47.4207611083984,9.3547191619873,5008.4,452.4,Migros,supermarket
540,3001118234,1140,Langgasse 11,47.4346084594727,9.38476085662842,944.2,149.4,Migros,supermarket
541,3001120687,1300,Speicherstr. 27,47.4247703552246,9.38499069213867,2739.4,321.5,Migros,supermarket
542,3001124068,1650,Fürstenlandstrasse 179,47.4093055725098,9.33209800720215,6031.7,636.4,Migros,supermarket
543,3001133982,1690,Zilweg 10,47.4417991638184,9.40919876098633,2395.5,323.9,Migros,supermarket
544,3001134003,1293,Iddastr. 19,47.436710357666,9.38644790649414,1174.8,186.2,Migros,supermarket
545,3001134382,2200,Heimstr. 8a,47.4148788452148,9.33783340454102,6487.6,582.4,Migros,supermarket
546,3001142255,1950,Katharinengasse 8,47.4267997741699,9.3772439956665,2046.8,267.2,Migros,supermarket
547,3001142256,1900,Katharinengasse 8,47.4267997741699,9.3772439956665,2046.8,267.2,Migros,supermarket
548,3001145344,1500,Röschstrasse 11,47.4319686889648,9.40022945404053,1385.8,236.7,Migros,supermarket
549,3001145410,1390,Oberstrasse 205,47.4121780395508,9.35199928283691,5052.3,566.6,Migros,supermarket
550,3001145546,1870,Stahlstrasse 9,47.4213943481445,9.35567760467529,5068.4,458.0,Migros,supermarket
551,3001145712,1300,Oststr. 7,47.4309387207031,9.39225673675537,1295.6,215.3,Migros,supermarket
552,3001145713,1200,Oststr. 7,47.4309387207031,9.39225673675537,1295.6,215.3,Migros,supermarket
553,3001145758,1100,Langgasse 59c,47.4384803771973,9.38886642456055,1446.4,226.8,Migros,supermarket
554,3001146643,900,Paradiesstrasse 29,47.4177627563477,9.36205863952637,3806.0,442.7,Migros,supermarket
555,3001154674,1350,Langgasse 155,47.449348449707,9.39771270751953,2226.6,288.6,Migros,supermarket
556,3001158513,1290,Grütlistrasse 6,47.4346389770508,9.40295505523682,1476.1,231.1,Migros,supermarket
557,3001167228,1307,Langgasse 155,47.449348449707,9.39771270751953,2226.6,288.6,Migros,supermarket
558,3001172304,1050,Lukasstrasse 3,47.4398574829102,9.39527797698975,1058.3,182.4,Migros,supermarket
559,3001174557,1060,Felsenstrasse 78,47.4196395874023,9.37182903289795,3789.8,440.4,Migros,supermarket
560,3001175366,1370,Sonnenhaldenstrasse 19,47.4405136108398,9.3912525177002,1598.3,235.9,Migros,supermarket
561,3001175690,1484,Aeplistrasse 5,47.4345512390137,9.38718509674072,846.6,146.0,Migros,supermarket
562,3001177098,1355,Burenbüchelstr. 9,47.4359474182129,9.41016292572021,2064.9,267.6,Migros,supermarket
563,3001177658,1750,Ullmannstrasse 27,47.4132843017578,9.33195877075195,7194.9,663.7,Migros,supermarket
564,3001183466,760,Unterstr. 53,47.418342590332,9.3661994934082,3563.6,408.7,Migros,supermarket
565,3001184167,890,St. Georgen-Strasse 118,47.4153137207031,9.38610649108887,4503.5,537.7,Migros,supermarket
566,3001187072,1290,Ilgenstrasse 50,47.4165382385254,9.35750961303711,4017.2,467.1,Migros,supermarket
567,3001187814,1480,Redingstrasse 4,47.4271087646484,9.37194442749023,2637.6,339.2,Migros,supermarket
568,3001189594,1360,Hagenbuchstrasse 10,47.4311408996582,9.3983097076416,1651.9,285.9,Migros,supermarket
569,3001190574,1100,Hungerbühlerstrasse 1a,47.4104766845703,9.33370113372803,6935.6,620.5,Migros,supermarket
570,3001192364,775,Falkensteinstrasse 5,47.4299926757812,9.39174365997314,1666.7,251.0,Migros,supermarket
571,3001192542,740,Brunnenbergstrasse 10,47.4239501953125,9.38275909423828,2660.6,327.3,Migros,supermarket
572,3001193043,1750,Schmiedgasse 19,47.4238662719727,9.37584400177002,2970.9,438.0,Migros,supermarket
573,3001198085,2850,Hinterlauben 10,47.424747467041,9.37550258636475,2964.1,435.5,Migros,supermarket
574,3001198152,2390,Heiligkreuzstrasse 53,47.4404067993164,9.3939847946167,1117.6,184.3,Migros,supermarket
575,3001198951,1600,Vonwilstrasse 51,47.4194450378418,9.35537147521973,5004.5,448.9,Migros,supermarket
576,3001201708,2370,Stauffacherstrasse 5,47.4235572814941,9.36404323577881,3091.2,402.0,Migros,supermarket
577,3001206690,1290,Treuackerstrasse 25,47.4154357910156,9.36357879638672,3904.5,450.5,Migros,supermarket
578,3001207296,2410,Burgstrasse 51,47.4180908203125,9.35981178283691,3708.9,421.5,Migros,supermarket
579,3001207526,1350,Burgstrasse 85,47.4163856506348,9.35553169250488,4088.9,459.7,Migros,supermarket
580,3001209766,1850,Oberer Graben 37,47.4225959777832,9.37484836578369,2943.5,386.5,Migros,supermarket
581,3001214688,1530,Waldaustr. 8,47.4199867248535,9.35248279571533,5205.4,469.0,Migros,supermarket
582,3001219305,995,Burgstrasse 21,47.4193382263184,9.36314487457275,3500.8,406.8,Migros,supermarket
583,3001222337,1355,Oberstrasse 201,47.4123687744141,9.35126495361328,4906.8,529.0,Migros,supermarket
584,3001222348,1375,Oberstrasse 205,47.4121780395508,9.35199928283691,5052.3,566.6,Migros,supermarket
585,3001222804,1520,Wiesentalstr. 26,47.433349609375,9.3979549407959,1007.4,171.8,Migros,supermarket
586,3001223803,1410,Grenzstrasse 2,47.4178924560547,9.35950660705566,3742.4,426.7,Migros,supermarket
587,3001224338,1010,Hardungstrasse 63a,47.4254302978516,9.40409088134766,4314.1,462.9,Migros,supermarket
588,3001225087,1400,Turnerstrasse 32,47.4180221557617,9.35484027862549,5237.3,458.7,Migros,supermarket
589,3001226202,1590,Goliathgasse 37,47.4279747009277,9.37712287902832,2050.5,271.2,Migros,supermarket
590,3001233790,950,Rorschacher Strasse 183,47.4329643249512,9.39859294891357,1067.7,183.5,Migros,supermarket
591,3001234723,1310,Oberstrasse 255,47.408634185791,9.34397888183594,5611.7,612.2,Migros,supermarket
592,3001235438,1690,Tannenstrasse 32,47.4357986450195,9.3785228729248,1822.8,273.0,Migros,supermarket
593,3001236200,1290,Geltenwilenstrasse 23,47.418327331543,9.3671875,3498.6,399.9,Migros,supermarket
594,3001237750,1500,Gottfried-Keller-Strasse 12,47.4202613830566,9.37479496002197,3247.0,417.3,Migros,supermarket
595,3001237758,1390,Tschudistr. 15,47.4173316955566,9.36606597900391,4228.8,519.7,Migros,supermarket
596,3001237759,1170,Krontalstr. 13,47.4327812194824,9.39970684051514,1269.8,217.7,Migros,supermarket
597,3001240014,1260,Kreuzbleichestrasse 8,47.4201164245605,9.35637950897217,5014.2,446.6,Migros,supermarket
598,3001246535,1820,Langgasse 11,47.4346084594727,9.38476085662842,944.2,149.4,Migros,supermarket
599,3001246726,1170,Achslenweg 8,47.4349250793457,9.40976142883301,2095.0,272.3,Migros,supermarket
600,3001252594,1160,Haggenstr. 56,47.4062271118164,9.33734130859375,6261.7,653.9,Migros,supermarket
601,3001252596,1430,Haggenstr. 58,47.4060325622559,9.33769130706787,6299.7,657.3,Migros,supermarket
602,3001253414,3360,Multergasse 6,47.4246520996094,9.37599945068359,2969.8,431.1,Migros,supermarket
603,3001259959,1580,Brauerstrasse 81,47.442699432373,9.41032409667969,2896.0,373.4,Migros,supermarket
604,3001260432,1190,Rickenstrasse 4,47.407772064209,9.33381938934326,6339.3,684.9,Migros,supermarket
605,3001260433,870,Buchentalstrasse 5,47.4334945678711,9.39832019805908,975.8,161.7,Migros,supermarket
606,3001261017,1080,Kolumbanstrasse 36,47.4381294250488,9.39186096191406,818.7,158.1,Migros,supermarket
607,3001262175,900,Burgstrasse 66,47.4173927307129,9.35795593261719,3871.2,440.2,Migros,supermarket
608,3001262720,1650,Wildeggstrasse 25,47.4238510131836,9.38372230529785,3125.4,377.3,Migros,supermarket
609,3001264914,1000,Domänenstrasse 2,47.4405937194824,9.39426136016846,1156.3,192.9,Migros,supermarket
610,3001270299,1200,Falkensteinstrasse 10,47.4299011230469,9.39220905303955,1637.2,246.8,Migros,supermarket
611,3001274608,1530,Zweibruggenmühlestrasse 7,47.4072647094727,9.32735157012939,7664.1,681.7,Migros,supermarket
612,3001277024,1210,Unterer Graben 39,47.4283866882324,9.37582015991211,1949.6,244.2,Migros,supermarket
613,3001279168,1370,Haggenstr. 86,47.4040832519531,9.33809375762939,6738.8,719.9,Migros,supermarket
614,3001279201,1520,Sonnenhaldenstrasse 10a,47.4417457580566,9.39127922058105,1518.7,240.4,Migros,supermarket
615,3001279203,1000,Sonnenhaldenstrasse 8,47.4416007995605,9.39217567443848,1491.8,234.0,Migros,supermarket
616,3001279734,1040,Kräzernstrasse 10,47.4073371887207,9.32496070861816,7683.0,678.3,Migros,supermarket
617,3001279823,1490,Solitüdenstrasse 1,47.4126167297363,9.36404991149902,4184.1,469.0,Migros,supermarket
618,3001279899,1350,Sömmerlistrasse,47.4184989929199,9.35178279876709,5235.2,462.8,Migros,supermarket
619,3001281270,800,Kolumbanstrasse 47,47.4394798278809,9.39236450195312,971.8,181.3,Migros,supermarket
620,3001281696,1050,Oberstrasse 81,47.4164695739746,9.36275386810303,3893.7,437.0,Migros,supermarket
621,3001281709,890,Berneggstr. 54,47.4187965393066,9.37232875823975,3496.3,453.9,Migros,supermarket
622,3001284556,860,Taubenstr. 4,47.4360466003418,9.38796520233154,1024.7,173.3,Migros,supermarket
623,3001285527,1170,Langgasse 139,47.4445838928223,9.39579772949219,1623.7,234.1,Migros,supermarket
624,3001285652,700,Oberstrasse 123,47.4147109985352,9.35912609100342,4235.9,468.0,Migros,supermarket
625,3001285654,995,Falkensteinstrasse 5,47.4299926757812,9.39174365997314,1666.7,251.0,Migros,supermarket
626,3001286025,1120,Flurhofstr. 153,47.4323043823242,9.40336227416992,1730.4,280.9,Migros,supermarket
627,3001286515,890,Tannenstrasse 36,47.435977935791,9.37874412536621,1847.2,276.7,Migros,supermarket
628,3001289983,1400,Fidesstrasse 12,47.4321784973145,9.39260673522949,1261.5,201.0,Migros,supermarket
629,3001295318,1055,Langgasse 44,47.436882019043,9.38813591003418,970.5,173.8,Migros,supermarket
630,3001295565,1500,Oberstrasse 293 C,47.4038543701172,9.34081935882568,6252.3,708.1,Migros,supermarket
631,3001296047,2100,Waisenhausstrasse 5,47.4242172241211,9.37339401245117,2515.8,307.0,Migros,supermarket
632,3001296351,1390,Spisergasse 29,47.4246368408203,9.37842750549316,3103.4,470.2,Migros,supermarket
633,3001297995,1100,Kirchlistrasse 1,47.4400367736816,9.37997150421143,1790.8,237.4,Migros,supermarket
634,3001298694,1090,Langgasse 153,47.449104309082,9.39769840240479,2200.6,286.2,Migros,supermarket
635,3001298695,1290,Langgasse 163,47.4503021240234,9.39786911010742,2331.0,297.9,Migros,supermarket
636,3001300461,1150,Brühlgasse 30,47.425220489502,9.37834548950195,2191.3,270.0,Migros,supermarket
637,3001300521,1600,Teufener Strasse 123,47.4134178161621,9.36389064788818,4080.2,452.6,Migros,supermarket
638,3001302822,1470,Reherstr. 19,47.4371223449707,9.41578769683838,2476.8,326.0,Migros,supermarket
639,3001302972,1090,Rickenstrasse 4,47.407772064209,9.33381938934326,6339.3,684.9,Migros,supermarket
640,3001302995,1450,Tigerbergstrasse 2,47.4277496337891,9.37399578094482,2350.0,295.4,Migros,supermarket
641,3001302996,1410,Grenzstrasse 2,47.4178924560547,9.35950660705566,3742.4,426.7,Migros,supermarket
642,3001303220,1190,Rickenstrasse 4,47.407772064209,9.33381938934326,6339.3,684.9,Migros,supermarket
643,3001303637,1035,Domänenstrasse 2,47.4405937194824,9.39426136016846,1156.3,192.9,Migros,supermarket
644,3001305224,1230,Hafnerstrasse 8,47.4238777160645,9.38092994689941,2537.9,313.6,Migros,supermarket
645,3001306042,1200,Ruhbergstrasse 63,47.4155731201172,9.36490821838379,4344.7,510.9,Migros,supermarket
646,3001309010,1390,Lindenstr. 33,47.4322128295898,9.38853549957275,1363.7,218.2,Migros,supermarket
647,3001309858,1000,Brühlbleichestrasse 10,47.4305038452148,9.38340282440186,1641.5,239.4,Migros,supermarket
648,3001310297,1390,Langgasse 91,47.4401397705078,9.39169311523438,1159.2,192.7,Migros,supermarket
649,3001310505,761,Sonnrainweg 12,47.4477005004883,9.39766311645508,2245.5,298.6,Migros,supermarket
650,3001310526,1780,Landhausstrasse 9,47.4129066467285,9.35278511047363,4784.9,527.5,Migros,supermarket
651,3001311443,925,Gübsenstrasse 90,47.4002265930176,9.30102443695068,9437.8,655.4,Migros,supermarket
652,3001311883,840,Rorschacher Strasse 183,47.4329643249512,9.39859294891357,1067.7,183.5,Migros,supermarket
653,3001312809,1290,Zilstrasse 56,47.4436836242676,9.40863132476807,2356.6,322.6,Migros,supermarket
654,3001312835,1480,Kamorstrasse 14,47.4190788269043,9.35215282440186,5230.2,472.6,Migros,supermarket
655,3001312841,1980,Obere Felsenstrasse 2,47.4189987182617,9.37156295776367,3810.0,441.0,Migros,supermarket
656,3001314391,1330,Scheibenackerstrasse 14,47.4295616149902,9.39133739471436,1715.9,261.5,Migros,supermarket
657,3001315241,1380,Ullmannstrasse 23,47.4135284423828,9.33248519897461,7140.4,655.6,Migros,supermarket
658,3001315318,990,Burgstrasse 19,47.4193916320801,9.36352825164795,3531.0,411.4,Migros,supermarket
659,3001316083,2150,Heimstr. 12,47.4145622253418,9.33732604980469,6488.3,582.6,Migros,supermarket
660,3001317298,1420,Rehburgstrasse 1,47.4315147399902,9.39706230163574,1774.0,273.2,Migros,supermarket
661,3001317671,1590,Goliathgasse 37,47.4279747009277,9.37712287902832,2050.5,271.2,Migros,supermarket
662,3001317841,1270,Iddastrasse 30a,47.4375686645508,9.38802242279053,1321.9,208.2,Migros,supermarket
663,3001318294,1290,Linsebühlstrasse 12,47.4242973327637,9.3804931640625,2390.0,289.9,Migros,supermarket
664,3001318375,1490,Brühlbleichestrasse 10,47.4305038452148,9.38340282440186,1641.5,239.4,Migros,supermarket
665,3001319171,1200,Wildeggstrasse 16,47.4232139587402,9.38241863250732,3243.8,394.4,Migros,supermarket
666,3001319741,1350,Wildeggstr. 7,47.4232711791992,9.38164901733398,3294.0,401.6,Migros,supermarket
667,3001319742,1490,Waldaustrasse 2,47.4203186035156,9.35294151306152,5152.6,463.6,Migros,supermarket
668,3001320785,1290,Speicherstr. 29,47.4248085021973,9.38529205322266,2762.5,323.6,Migros,supermarket
669,3001321210,1290,Langgasse 36,47.4360466003418,9.38742446899414,1054.0,177.7,Migros,supermarket
670,3001321244,1635,Oberzilstrasse 6,47.4412536621094,9.40854740142822,2093.5,279.3,Migros,supermarket
671,3001321685,1170,Buchwaldstrasse 2,47.4361724853516,9.39269924163818,553.3,122.5,Migros,supermarket
672,3001327124,1600,Oststrasse 20,47.4316635131836,9.39398384094238,1140.7,192.0,Migros,supermarket
673,3001327633,1150,Linsebühlstrasse 35,47.4245948791504,9.38196849822998,2504.5,300.3,Migros,supermarket
674,3001328642,1200,Badstrasse 8,47.4190864562988,9.35286998748779,5159.6,462.1,Migros,supermarket
675,3001328643,1260,Badstrasse 8,47.4190864562988,9.35286998748779,5159.6,462.1,Migros,supermarket
676,3001328644,1160,Badstrasse 8,47.4190864562988,9.35286998748779,5159.6,462.1,Migros,supermarket
677,3001328645,1160,Badstrasse 8,47.4190864562988,9.35286998748779,5159.6,462.1,Migros,supermarket
678,3001328965,1095,Rickenstrasse 20,47.4074401855469,9.33251190185547,6443.1,699.9,Migros,supermarket
679,3001328999,1350,Schönbüelpark 12,47.4396553039551,9.41220855712891,2311.1,305.6,Migros,supermarket
680,3001329780,1120,Stationsweg 8,47.4075012207031,9.32912540435791,6374.3,684.6,Migros,supermarket
681,3001329858,890,Berneggstrasse 52,47.419017791748,9.37270641326904,3459.3,448.6,Migros,supermarket
682,3001330645,1000,Buchwaldstrasse 2,47.4361724853516,9.39269924163818,553.3,122.5,Migros,supermarket
683,3001330772,1200,Buchwaldstrasse 2,47.4361724853516,9.39269924163818,553.3,122.5,Migros,supermarket
684,3001331497,1730,Zwinglistrasse 19,47.4256134033203,9.37030601501465,2600.5,343.7,Migros,supermarket
685,3001331624,1560,Langgasse 29,47.4360008239746,9.38662338256836,1094.7,167.3,Migros,supermarket
686,3001332172,590,Sonnenhaldenstrasse 10a,47.4417457580566,9.39127922058105,1518.7,240.4,Migros,supermarket
687,3001334112,1345,Zilweg 13,47.4425430297852,9.40908527374268,2427.0,330.8,Migros,supermarket
688,3001334114,1575,Zilweg 15,47.4427108764648,9.40900611877441,2427.0,330.8,Migros,supermarket
689,3001335398,900,Wildeggstrasse 20,47.4234085083008,9.3829870223999,3195.9,387.4,Migros,supermarket
690,3001335407,1450,Paradiesstrasse 2a,47.419059753418,9.36344051361084,3505.4,429.3,Migros,supermarket
691,3001335808,1190,Rorschacher Strasse 229,47.435791015625,9.40303707122803,1485.9,222.2,Migros,supermarket
692,3001336192,1780,Langweidstrasse 2,47.4125061035156,9.35506057739258,4942.0,547.4,Migros,supermarket
693,3001336193,1250,Langweidstrasse 4,47.4123268127441,9.35518360137939,4951.6,548.9,Migros,supermarket
694,3001336198,660,Langweidstrasse 2,47.4125061035156,9.35506057739258,4942.0,547.4,Migros,supermarket
695,3001336200,1980,Langweidstrasse 4,47.4123268127441,9.35518360137939,4951.6,548.9,Migros,supermarket
696,3001336203,2190,Langweidstrasse 8,47.4123954772949,9.35590171813965,5007.4,557.2,Migros,supermarket
697,3001336208,1300,Langweidstrasse 8,47.4123954772949,9.35590171813965,5007.4,557.2,Migros,supermarket
698,3001336213,2340,Langweidstrasse 8,47.4123954772949,9.35590171813965,5007.4,557.2,Migros,supermarket
699,3001336410,1510,Zilweg 11,47.442626953125,9.40856456756592,2427.0,330.8,Migros,supermarket
700,3001337174,1300,Rickenstrasse 4,47.407772064209,9.33381938934326,6339.3,684.9,Migros,supermarket
701,3001337225,1440,Bernhardswiesstrasse 34,47.4072074890137,9.33975696563721,6090.2,653.0,Migros,supermarket
702,3001339504,1420,Hechtackerstrasse 12g,47.4076156616211,9.34005165100098,5920.7,635.0,Migros,supermarket
703,3001340922,1020,Walserstrasse 4,47.407413482666,9.33434104919434,6256.0,671.7,Migros,supermarket
704,3001342548,1250,Hüttenwiesstrasse 9,47.4386978149414,9.40172481536865,1366.6,192.2,Migros,supermarket
705,3001345530,1250,Brühlgasse 50,47.4246788024902,9.37870025634766,3200.7,492.1,Migros,supermarket
706,3001345902,1105,Schwalbenstrasse 10,47.427001953125,9.38384819030762,2275.9,319.5,Migros,supermarket
707,3001346082,1310,Langgasse 153,47.449104309082,9.39769840240479,2200.6,286.2,Migros,supermarket
708,3001346308,2790,Bubenbergstr. 4,47.4184036254883,9.37905502319336,3755.1,494.3,Migros,supermarket
709,3001346929,1340,Bernhardswiesstrasse 33,47.4071235656738,9.34114456176758,5888.4,651.9,Migros,supermarket
710,3001347558,1290,Brauerstrasse 1,47.4335517883301,9.39944362640381,1106.0,192.7,Migros,supermarket
711,3001347559,1300,Brauerstrasse 1,47.4335517883301,9.39944362640381,1106.0,192.7,Migros,supermarket
712,3001347688,850,Teufener Strasse 10,47.4206771850586,9.37107753753662,3198.9,387.8,Migros,supermarket
713,3001347881,1020,Farbgutstrasse 10,47.4352493286133,9.38732147216797,980.3,170.0,Migros,supermarket
714,3001348433,1660,Sonnrainweg 8,47.4480819702148,9.39764785766602,2203.1,292.5,Migros,supermarket
715,3001349993,1020,Farbgutstrasse 10,47.4352493286133,9.38732147216797,980.3,170.0,Migros,supermarket
716,3001350433,1300,Speicherstr. 29,47.4248085021973,9.38529205322266,2762.5,323.6,Migros,supermarket
717,3001350437,1300,Wiesentalstr. 14,47.4329490661621,9.39658451080322,1117.3,188.1,Migros,supermarket
718,3001350438,1240,Iddastrasse 22,47.4367256164551,9.38694858551025,1198.2,189.7,Migros,supermarket
719,3001350623,780,Volksbadstrasse 8,47.428596496582,9.38481998443604,2071.1,289.5,Migros,supermarket
720,3001350678,1695,Langgasse 9,47.434497833252,9.38464164733887,957.9,150.5,Migros,supermarket
721,3001350682,1790,Grenzstrasse 1,47.4178848266602,9.35994911193848,3763.4,429.8,Migros,supermarket
722,3001352407,1515,Langgasse 13,47.4346694946289,9.38483333587646,935.6,148.6,Migros,supermarket
723,3001354881,1801,Tablatstrasse 10,47.4377517700195,9.4197244644165,3182.7,370.3,Migros,supermarket
724,3001354883,1685,Tablatstrasse 10c,47.4372634887695,9.41964054107666,2894.7,353.6,Migros,supermarket
725,3001354885,1738,Tablatstrasse 10a,47.4375915527344,9.41968631744385,2748.2,366.7,Migros,supermarket
726,3001356526,1400,Zilstrasse 6,47.4408302307129,9.40460872650146,1974.3,269.8,Migros,supermarket
727,3001361663,1220,Ahornstrasse 23a,47.4143943786621,9.34685325622559,4786.5,522.3,Migros,supermarket
728,3001364371,1100,Steingrüeblistrasse 44,47.4266510009766,9.39069271087646,2604.3,357.2,Migros,supermarket
729,3001364396,1110,Steingrüeblistrasse 44,47.4266510009766,9.39069271087646,2604.3,357.2,Migros,supermarket
730,3001364411,1290,Steingrüeblistrasse 44,47.4266510009766,9.39069271087646,2604.3,357.2,Migros,supermarket
731,3001366539,1120,Flurhofstr. 149,47.4323463439941,9.40286731719971,1730.4,280.9,Migros,supermarket
732,3001367439,1240,Iddastrasse 52,47.4397201538086,9.38997077941895,1603.7,250.3,Migros,supermarket
733,3001367477,1440,Lukasstrasse 2,47.4394416809082,9.3950891494751,1013.9,178.4,Migros,supermarket
734,3001369138,1495,Rorschacher Strasse 124,47.4307746887207,9.39366340637207,1508.2,216.2,Migros,supermarket
735,3001369684,1290,Torstrasse 20,47.428035736084,9.37781524658203,1897.5,241.4,Migros,supermarket
736,3001369750,1396,Tablatstrasse 10c,47.4372634887695,9.41964054107666,2894.7,353.6,Migros,supermarket
737,3001369751,1290,Tablatstrasse 10c,47.4372634887695,9.41964054107666,2894.7,353.6,Migros,supermarket
738,3001370273,840,Höhenweg 11,47.429615020752,9.3725414276123,2274.1,326.7,Migros,supermarket
739,3001370626,1390,Wildeggstrasse 19,47.4235343933105,9.38277435302734,3204.9,388.7,Migros,supermarket
740,3001371343,1350,Sömmerlistrasse,47.4184989929199,9.35178279876709,5235.2,462.8,Migros,supermarket
741,3001372173,1660,Falkensteinstrasse 72,47.4314270019531,9.39884471893311,1471.0,254.7,Migros,supermarket
742,3001377914,1530,Linsebühlstrasse 14,47.4243087768555,9.38061618804932,2399.3,290.8,Migros,supermarket
743,3001378309,1550,Kugelgasse 3,47.4257469177246,9.37753963470459,2111.3,262.8,Migros,supermarket
744,3001379324,1700,Ullmannstrasse 23b,47.4129486083984,9.33236312866211,7029.8,645.3,Migros,supermarket
745,3001380381,1215,Rosenbergweg 21,47.4219932556152,9.36234951019287,4121.9,351.9,Migros,supermarket
746,3001380399,1350,Rosenbergweg 21,47.4219932556152,9.36234951019287,4121.9,351.9,Migros,supermarket
747,3001380521,785,Pelikanstrasse 21,47.4372100830078,9.39230251312256,676.8,138.4,Migros,supermarket
748,3001380606,785,Burgstrasse 19,47.4193916320801,9.36352825164795,3531.0,411.4,Migros,supermarket
749,3001380667,1360,Rickenstrasse 20,47.4074401855469,9.33251190185547,6443.1,699.9,Migros,supermarket
750,3001380921,710,Ruhbergstrasse 48,47.4149131774902,9.36348438262939,4215.8,491.5,Migros,supermarket
751,3001381315,1350,Sonnrainweg 14,47.4475479125977,9.39769744873047,2262.6,301.1,Migros,supermarket
752,3001382303,1730,Kesselhaldenstrasse 6,47.4384689331055,9.40322494506836,1508.3,198.4,Migros,supermarket
753,3001382682,2450,St Georgen Str. 20,47.4228096008301,9.38051223754883,3397.2,417.0,Migros,supermarket
754,3001383681,1140,Bedastrasse 11,47.4286613464355,9.39088344573975,1808.8,279.4,Migros,supermarket
755,3001384071,1440,Hechtackerstrasse 12d,47.4075241088867,9.33936977386475,6044.4,642.0,Migros,supermarket
756,3001385146,650,Brauerstrasse 3,47.4337310791016,9.39962577819824,1118.1,195.6,Migros,supermarket
757,3001385241,1600,Ludwigstr. 15,47.4408416748047,9.37835311889648,1998.1,268.4,Migros,supermarket
758,3001385255,1430,Langgasse 159,47.4499473571777,9.39748668670654,2291.2,294.3,Migros,supermarket
759,3001385379,1919,Vogelherdstr. 17,47.4366302490234,9.41966819763184,2861.6,350.6,Migros,supermarket
760,3001386086,1290,Zilstrasse 10,47.4411582946777,9.40502548217773,1957.8,265.8,Migros,supermarket
761,3001387524,890,Oberstrasse 65,47.416748046875,9.36429977416992,3775.7,426.6,Migros,supermarket
762,3001387933,1920,Ullmannstrasse 23a,47.4133110046387,9.33245658874512,7194.9,663.7,Migros,supermarket
763,3001389161,1100,Rosenbergstrasse 64,47.4233627319336,9.36717796325684,2820.6,328.6,Migros,supermarket
764,3001389165,1190,Helvetiastrasse 51,47.4341926574707,9.39534091949463,983.8,187.0,Migros,supermarket
765,3001389167,1750,Obere Büschenstrasse 10,47.4247970581055,9.38028240203857,2353.5,289.5,Migros,supermarket
766,3001389168,2190,Fürstenlandstrasse 135,47.4106826782227,9.33879375457764,5773.0,655.9,Migros,supermarket
767,3001389931,1200,Neugasse 35,47.4247093200684,9.37479877471924,2396.5,290.7,Migros,supermarket
768,3001390742,1840,Lukasstrasse 41,47.4388809204102,9.40090847015381,1370.9,185.5,Migros,supermarket
769,3001394636,1470,Leuenbergerstrasse 2,47.4173431396484,9.34955787658691,5769.8,526.1,Migros,supermarket
770,3001394899,1310,Langgasse 157,47.4497146606445,9.39772891998291,2267.4,292.2,Migros,supermarket
771,3001394909,1560,Favrestrasse 19,47.437198638916,9.41196441650391,3554.4,421.3,Migros,supermarket
772,3001396200,1540,Lehnstrasse 104a,47.4062080383301,9.3261137008667,7812.9,707.9,Migros,supermarket
773,3001396208,1090,Brauerstr. 47,47.4372138977051,9.40369892120361,1548.0,209.6,Migros,supermarket
774,3001397727,1180,Zweibruggenmühlestrasse 5,47.4071960449219,9.32706451416016,7643.7,678.8,Migros,supermarket
775,3001398196,1550,Lukasstrasse 36a,47.4386253356934,9.39911842346191,1542.1,216.8,Migros,supermarket
776,3001398462,1500,Linsebühlstrasse 99,47.4259910583496,9.38535594940186,2352.0,325.7,Migros,supermarket
777,3001400894,1825,Schönbüelpark 7,47.4410133361816,9.41225528717041,2341.9,308.3,Migros,supermarket
778,3001402706,1010,Domänenstrasse 3,47.440860748291,9.39433193206787,1175.6,195.9,Migros,supermarket
779,3001402756,1480,Dufourstrasse 153,47.4226188659668,9.35810947418213,4910.4,429.7,Migros,supermarket
780,3001403510,1540,Burgstrasse 31,47.4190368652344,9.36180973052979,3530.1,416.2,Migros,supermarket
781,3001403636,690,Löwengasse,47.4253807067871,9.37762355804443,2142.6,265.6,Migros,supermarket
782,3001403823,855,Vonwilstrasse 51,47.4194450378418,9.35537147521973,5004.5,448.9,Migros,supermarket
783,3001404034,1490,Tablatstr. 12,47.4376907348633,9.42048072814941,3074.4,369.6,Migros,supermarket
784,3001404132,1200,Treuackerstrasse 34,47.415397644043,9.36264228820801,3969.3,460.0,Migros,supermarket
785,3001404387,1430,Burenbüchelstr. 11,47.4361267089844,9.41000270843506,2060.3,267.0,Migros,supermarket
786,3001404411,1897,Feldlistr. 7,47.4215202331543,9.35657405853271,4798.8,420.5,Migros,supermarket
787,3001405131,890,Achslenstr. 1,47.4336280822754,9.41360855102539,2205.2,291.2,Migros,supermarket
788,3001405132,1420,Tannenstr. 44,47.4366645812988,9.37887763977051,2140.3,286.6,Migros,supermarket
789,3001405208,1450,Hechtackerstrasse 14a,47.4082489013672,9.3399715423584,5873.0,616.0,Migros,supermarket
790,3001406256,890,Helvetiastrasse 41,47.4332618713379,9.3950719833374,938.4,162.0,Migros,supermarket
791,3001406265,1170,Burenbüchelstrasse 18a,47.4357681274414,9.41106510162354,2180.1,292.1,Migros,supermarket
792,3001407281,795,Metzgergasse 29,47.4272117614746,9.37481021881104,2122.1,264.5,Migros,supermarket
793,3001407405,1590,Obere Berneggstrasse 79,47.4128341674805,9.36686229705811,4379.6,485.6,Migros,supermarket
794,3001407521,770,Rappensteinweg 3,47.4325866699219,9.40242767333984,1622.7,272.1,Migros,supermarket
795,3001408605,1400,Kreuzbleichestrasse 7,47.4201011657715,9.35677814483643,5017.1,447.0,Migros,supermarket
796,3001408867,1290,Engelgasse 5,47.4263572692871,9.3745059967041,2224.7,283.2,Migros,supermarket
797,3001409150,749,Spiessergasse 43,47.4244956970215,9.37917041778564,3200.7,492.1,Migros,supermarket
798,3001409151,749,Spiessergasse 43,47.4244956970215,9.37917041778564,3200.7,492.1,Migros,supermarket
799,3001410662,1120,Flurhofstr. 155,47.4323310852051,9.40382099151611,1664.7,248.1,Migros,supermarket
800,3001412186,1730,Ahornstrasse 23a,47.4143943786621,9.34685325622559,4786.5,522.3,Migros,supermarket
801,3001412963,1240,Langgasse 36,47.4360466003418,9.38742446899414,1054.0,177.7,Migros,supermarket
802,3001413248,929,Buchentalstrasse 6,47.4335479736328,9.39856815338135,980.0,162.3,Migros,supermarket
803,3001413398,1250,Speicherstr. 25,47.4247360229492,9.38468456268311,2716.1,319.4,Migros,supermarket
804,3001413400,1300,Wiesentalstr. 12,47.4329223632812,9.39637470245361,1133.0,190.5,Migros,supermarket
805,3001413836,1370,Bernhardswiesstrasse 11,47.4083480834961,9.34207916259766,5760.4,611.9,Migros,supermarket
806,3001414565,1270,Furglerstr. 8,47.4221458435059,9.35859775543213,5081.1,460.7,Migros,supermarket
807,3001415388,855,Zürcher Strasse 70,47.4174957275391,9.35018253326416,5378.1,468.7,Migros,supermarket
808,3001415640,1820,Burenbüchelstrasse 16,47.4356880187988,9.41069984436035,2086.9,270.9,Migros,supermarket
809,3001416060,690,Linsebühlstrasse 66,47.4248428344727,9.38330936431885,2614.9,316.4,Migros,supermarket
810,3001416181,1040,Stationsweg 6,47.4076118469238,9.32946395874023,6346.2,680.4,Migros,supermarket
811,3001416434,300,Girtannerstrasse 19,47.4355659484863,9.37706089019775,1834.1,275.0,Migros,supermarket
812,3001416435,4400,Girtannerstrasse 19,47.4355659484863,9.37706089019775,1834.1,275.0,Migros,supermarket
813,3001416436,300,Girtannerstrasse 19,47.4355659484863,9.37706089019775,1834.1,275.0,Migros,supermarket
814,3001416883,650,Stauffacherstrasse 7,47.4234428405762,9.36355876922607,3129.8,407.5,Migros,supermarket
815,3001418295,1600,St. Leonhard-Strasse 79,47.4210205078125,9.36458396911621,3178.7,367.6,Migros,supermarket
816,3001425963,1390,Iddastrasse 41,47.4391632080078,9.38868999481201,1500.7,234.9,Migros,supermarket
817,3001422307,1320,Langgasse 92,47.4403915405273,9.39240264892578,1214.5,197.7,Migros,supermarket
818,3001419785,1790,Hagenbuchstrasse 31,47.4297485351562,9.40007019042969,1805.6,300.2,Migros,supermarket
819,3001443923,2090,Lukasstrasse 41,47.4388809204102,9.40090847015381,1370.9,185.5,Migros,supermarket
820,3001447249,1595,Burenbüchelstr. 11,47.4361267089844,9.41000270843506,2060.3,267.0,Migros,supermarket
821,3001452012,1395,Rosenbergweg 19,47.4218940734863,9.36297130584717,3181.9,371.5,Migros,supermarket
822,3001454132,1200,Langgasse 46,47.4370613098145,9.38827133178711,948.3,171.8,Migros,supermarket
823,3001454155,1360,Langgasse 46,47.4370613098145,9.38827133178711,948.3,171.8,Migros,supermarket
824,3001418253,1900,Oberstrasse 218,47.4120750427246,9.34844779968262,4919.4,545.3,Migros,supermarket
825,3001419783,1490,Hagenbuchstrasse 31a,47.4298248291016,9.40028095245361,1790.9,298.0,Migros,supermarket
826,3001457002,850,Linsebühlstrasse 66,47.4248428344727,9.38330936431885,2614.9,316.4,Migros,supermarket
827,3001457010,1300,Linsebühlstrasse 16,47.4243240356445,9.38075637817383,2410.0,291.7,Migros,supermarket
828,3001457042,1390,Vonwilstrasse 51,47.4194450378418,9.35537147521973,5004.5,448.9,Migros,supermarket
829,3001456554,1500,Rorschacher Strasse 155,47.4317054748535,9.39577102661133,1267.6,206.2,Migros,supermarket
830,3001457039,1570,Feldbachstrasse 4,47.4211158752441,9.35555934906006,5083.1,463.5,Migros,supermarket
831,3001421370,1340,Iddastrasse,47.4354095458984,9.38514137268066,996.3,159.4,Migros,supermarket
832,3001457041,2445,Vonwilstrasse 51,47.4194450378418,9.35537147521973,5004.5,448.9,Migros,supermarket
833,3001465079,790,Lustgartenstrasse 14,47.421028137207,9.3643627166748,3220.2,382.9,Migros,supermarket
834,3001465093,1050,Dietlistrasse 35,47.4257621765137,9.36223983764648,3682.7,318.3,Migros,supermarket
835,3001465787,1305,Spyristrasse 9,47.4368362426758,9.39242649078369,643.4,135.6,Migros,supermarket
836,3001465804,1550,Teufener Strasse 123,47.4134178161621,9.36389064788818,4080.2,452.6,Migros,supermarket
837,3001467360,2630,Goethestrasse 44,47.4369812011719,9.38311100006104,1332.5,192.9,Migros,supermarket
838,3001468698,700,Sonnenhaldenstrasse 10b,47.4414405822754,9.39097785949707,1537.7,228.4,Migros,supermarket
839,3001468697,1670,Hechtackerstrasse 14a,47.4082489013672,9.3399715423584,5873.0,616.0,Migros,supermarket
840,3001468690,1490,Schönbüelpark 12,47.4396553039551,9.41220855712891,2311.1,305.6,Migros,supermarket
841,3001468678,1570,Hubertusstr. 2,47.4333152770996,9.40306282043457,1380.0,220.3,Migros,supermarket
842,3001413023,1343,Schönauweg 9,47.4179878234863,9.34551239013672,5849.5,528.5,Migros,supermarket
843,3001315315,1340,Feldbachstrasse 7,47.4210090637207,9.3557186126709,5085.4,463.9,Migros,supermarket
844,3001004255,1325,Poststrasse 16,47.4245719909668,9.37232494354248,2520.2,302.7,Migros,supermarket
845,3001304110,1325,Linsebühlstrasse 103,47.4261894226074,9.38566780090332,2319.8,320.8,Migros,supermarket
846,3001422233,1200,Feldlistrasse 17,47.4221534729004,9.35547733306885,4907.4,430.4,Migros,supermarket
847,3001423044,1200,Falkensteinstrasse 10,47.4299011230469,9.39220905303955,1637.2,246.8,Migros,supermarket
848,3001426743,1680,Kreuzbleichestrasse 7,47.4201011657715,9.35677814483643,5017.1,447.0,Migros,supermarket
849,3001445103,1300,Teufener Strasse 150,47.4106788635254,9.36655139923096,4491.7,486.6,Migros,supermarket
850,3001447741,2110,Wattstrasse 11,47.4105110168457,9.36919021606445,4674.6,523.4,Migros,supermarket
851,3001452236,1662,Sonnrainweg 14,47.4475479125977,9.39769744873047,2262.6,301.1,Migros,supermarket
852,3001454343,718,Tablatstrasse 30b,47.4368362426758,9.41854095458984,2805.3,345.6,Migros,supermarket
853,3001454430,1280,Brühlgasse 50,47.4246788024902,9.37870025634766,3200.7,492.1,Migros,supermarket
854,3001055869,1095,Bedastrasse 11,47.4286613464355,9.39088344573975,1808.8,279.4,Migros,supermarket
855,3001457144,1430,Burenbüchelstr. 11,47.4361267089844,9.41000270843506,2060.3,267.0,Migros,supermarket
856,3001465235,2630,Goethestrasse 44,47.4369812011719,9.38311100006104,1332.5,192.9,Migros,supermarket
857,3001466297,1290,Iddastrasse 60,47.4403495788574,9.39087867736816,1624.2,239.7,Migros,supermarket
858,3001466304,1460,Achslenstr. 1,47.4336280822754,9.41360855102539,2205.2,291.2,Migros,supermarket
859,3001467983,830,Vonwilstrasse 51,47.4194450378418,9.35537147521973,5004.5,448.9,Migros,supermarket
860,3001469403,990,Rorschacher Strasse 229,47.435791015625,9.40303707122803,1485.9,222.2,Migros,supermarket
861,3001469080,642,Zwyssigstrasse 20,47.4219284057617,9.34619235992432,5660.6,497.0,Migros,supermarket
862,3001469480,1660,Heiligkreuzstrasse 53,47.4404067993164,9.3939847946167,1117.6,184.3,Migros,supermarket
863,3001469549,1080,Brühlbleichestrasse 10,47.4305038452148,9.38340282440186,1641.5,239.4,Migros,supermarket
864,3001319737,1090,Engelwiesstrasse 5c,47.4123153686523,9.33105659484863,7110.8,638.6,Migros,supermarket
865,3001380668,890,Rickenstrasse 20,47.4074401855469,9.33251190185547,6443.1,699.9,Migros,supermarket
866,3001180367,890,Wolfgangstrasse 67,47.4027519226074,9.33110809326172,7453.1,816.9,Migros,supermarket
867,3001424552,1750,Langweidstrasse 2,47.4125061035156,9.35506057739258,4942.0,547.4,Migros,supermarket
868,3001418517,1450,Rappensteinstrasse 10,47.4308242797852,9.39835739135742,1650.0,281.6,Migros,supermarket
869,3001419698,1430,Burenbüchelstr. 11,47.4361267089844,9.41000270843506,2060.3,267.0,Migros,supermarket
870,3001440025,900,Teufener Strasse 100,47.4150390625,9.36435222625732,3886.0,435.2,Migros,supermarket
871,3001439654,890,Brauerstrasse 5,47.4337387084961,9.39980602264404,1173.6,196.1,Migros,supermarket
872,3001423019,1380,Buchwaldstrasse 2,47.4361724853516,9.39269924163818,553.3,122.5,Migros,supermarket
873,3001440057,1720,Favrestrasse 17,47.4372520446777,9.41258144378662,3498.4,407.2,Migros,supermarket
874,3001424963,1375,Kolosseumstr. 10,47.4369201660156,9.3914966583252,754.6,151.9,Migros,supermarket
875,3001437299,1690,Brauerstrasse 79a,47.4423408508301,9.40994739532471,2880.4,362.2,Migros,supermarket
876,3001440049,1901,Vogelherdstr. 7c,47.4363670349121,9.419264793396,2817.4,346.6,Migros,supermarket
877,3001439759,980,Feldlistrasse 19,47.4223251342773,9.35517120361328,4937.2,433.0,Migros,supermarket
878,3001435737,1825,Schönbüelpark 7,47.4410133361816,9.41225528717041,2341.9,308.3,Migros,supermarket
879,3001434755,1370,Ackerstrasse 1,47.4280204772949,9.38988304138184,1873.0,276.6,Migros,supermarket
880,3001434314,1190,Ackerstrasse 1,47.4280204772949,9.38988304138184,1873.0,276.6,Migros,supermarket
881,3001434328,1430,Brauerstr. 15,47.4345664978027,9.40053081512451,1269.4,210.3,Migros,supermarket
882,3001434327,1540,Ilgenstr. 59,47.4158515930176,9.35661315917969,4116.0,481.2,Migros,supermarket
883,3001434318,1650,Multergasse 11,47.4243392944336,9.37596130371094,2964.1,435.5,Migros,supermarket
884,3001422111,1590,Reherstr. 19,47.4371223449707,9.41578769683838,2476.8,326.0,Migros,supermarket
885,3001435754,1220,Brühlbleichestrasse,47.4301338195801,9.3830680847168,1689.9,246.6,Migros,supermarket
886,3001435724,1400,Fidesstrasse 12,47.4321784973145,9.39260673522949,1261.5,201.0,Migros,supermarket
887,3001440807,1670,Hechtackerstrasse 12d,47.4075241088867,9.33936977386475,6044.4,642.0,Migros,supermarket
888,3001418917,1550,Zilweg 11,47.442626953125,9.40856456756592,2427.0,330.8,Migros,supermarket
889,3001430996,975,Burgstrasse 21,47.4193382263184,9.36314487457275,3500.8,406.8,Migros,supermarket
890,3001382329,1500,Otmarstrasse 17,47.4168815612793,9.35732173919678,4025.6,468.4,Migros,supermarket
891,3001430350,2900,Dufourstrasse 114,47.423885345459,9.3627347946167,3093.8,436.2,Migros,supermarket
892,3001430376,1350,Helvetiastrasse 54,47.4345283508301,9.39608287811279,802.8,143.5,Migros,supermarket
893,3001433230,1490,Solitüdenstrasse 1,47.4126167297363,9.36404991149902,4184.1,469.0,Migros,supermarket
894,3001433974,1100,Brauerstrasse 34,47.4358978271484,9.40302085876465,1694.5,231.6,Migros,supermarket
895,3001432475,2010,Ullmannstrasse 27,47.4132843017578,9.33195877075195,7194.9,663.7,Migros,supermarket
896,3001433716,1520,Oberstrasse 255,47.408634185791,9.34397888183594,5611.7,612.2,Migros,supermarket
897,3001425535,1390,Buchwaldstrasse 2,47.4361724853516,9.39269924163818,553.3,122.5,Migros,supermarket
898,3001432479,1410,Furglerstr. 14,47.422290802002,9.35991764068604,5176.5,475.0,Migros,supermarket
899,3001440543,750,Burgstrasse 80,47.4170188903809,9.35645389556885,3991.5,451.0,Migros,supermarket
900,3001441668,1285,Langgasse 11,47.4346084594727,9.38476085662842,944.2,149.4,Migros,supermarket
901,3001441671,1990,Langgasse 11,47.4346084594727,9.38476085662842,944.2,149.4,Migros,supermarket
902,3001441669,1815,Langgasse 9,47.434497833252,9.38464164733887,957.9,150.5,Migros,supermarket
903,3001445240,1590,Hagenbuchstrasse 10,47.4311408996582,9.3983097076416,1651.9,285.9,Migros,supermarket
904,3001385698,1630,Altwinkelnstrasse 17,47.4021606445312,9.30312728881836,9019.9,611.9,Migros,supermarket
905,3001321804,1630,Quimbystrasse 7,47.4001235961914,9.29899501800537,9518.5,668.4,Migros,supermarket
906,3001251668,1590,Altwinkelnstrasse 15,47.4022254943848,9.30288410186768,9088.7,609.7,Migros,supermarket
907,3001170136,1510,Kunklerstrasse 1,47.4062309265137,9.30460929870605,8535.9,562.9,Migros,supermarket
908,3001353330,1435,Sonnmattstrasse 33,47.4070587158203,9.31648921966553,9597.8,670.9,Migros,supermarket
909,3001079915,1390,Kräzernstrasse 30,47.4067420959473,9.32085132598877,9833.4,678.7,Migros,supermarket
910,3001442027,1350,Röschstrasse 14,47.4317283630371,9.39998435974121,1396.7,238.2,Migros,supermarket
911,3001448678,2150,Quimbystrasse 7,47.4001235961914,9.29899501800537,9518.5,668.4,Migros,supermarket
912,3001448697,970,Engelgasse 12,47.426586151123,9.37471008300781,2202.1,278.1,Migros,supermarket
913,3001448481,1190,Langgasse 61,47.4383544921875,9.38934993743896,890.0,168.3,Migros,supermarket
914,3001452624,1660,Zilstrasse 20,47.4422225952148,9.40559959411621,2097.8,284.7,Migros,supermarket
915,3001466592,1560,Martinsbruggstrasse 34,47.4364395141602,9.4097261428833,1950.9,245.2,Migros,supermarket
916,3001466596,1440,Langgasse 36,47.4360466003418,9.38742446899414,1054.0,177.7,Migros,supermarket
917,3001466589,1190,Langgasse 61,47.4383544921875,9.38934993743896,890.0,168.3,Migros,supermarket
918,3001468333,840,Rorschacher Strasse 183,47.4329643249512,9.39859294891357,1067.7,183.5,Migros,supermarket
919,3001469691,1390,Treuackerstrasse 34,47.415397644043,9.36264228820801,3969.3,460.0,Migros,supermarket
920,3001434052,1150,Buchentalstrasse 23,47.4346313476562,9.39625358581543,760.6,129.6,Migros,supermarket
921,3001446651,1550,Zilweg 11,47.442626953125,9.40856456756592,2427.0,330.8,Migros,supermarket
922,3001450273,1730,Kunklerstrasse 1,47.4062309265137,9.30460929870605,8535.9,562.9,Migros,supermarket
923,3001449586,890,Gartenstrasse 5,47.4217529296875,9.37387847900391,2778.6,331.3,Migros,supermarket
924,3001449308,1825,Schönbüelpark 7,47.4410133361816,9.41225528717041,2341.9,308.3,Migros,supermarket
925,3001449527,1220,Brühlbleichestrasse 10,47.4305038452148,9.38340282440186,1641.5,239.4,Migros,supermarket
926,3001449478,1170,Bogenstrasse 15,47.4191741943359,9.36273384094238,3489.2,410.3,Migros,supermarket
927,3001449876,1750,Salisstr. 18,47.4187889099121,9.35576725006104,5088.2,450.7,Migros,supermarket
928,3001453376,757,Vogelherdstr. 7c,47.4363670349121,9.419264793396,2817.4,346.6,Migros,supermarket
929,3001455222,1060,Hochwachtstrasse 1,47.413257598877,9.36318778991699,4133.7,464.7,Migros,supermarket
930,3001457663,890,Berneggstr. 52,47.419017791748,9.37270641326904,3459.3,448.6,Migros,supermarket
931,3001457658,1450,Iddastrasse 58,47.4402656555176,9.39069080352783,1641.8,242.4,Migros,supermarket
932,3001457657,1090,Tschudistr. 17,47.4172973632812,9.36594772338867,4219.1,518.3,Migros,supermarket
933,3001457662,1390,Krontalstr. 13,47.4327812194824,9.39970684051514,1269.8,217.7,Migros,supermarket
934,3001427562,1825,Schönbüelpark 7,47.4410133361816,9.41225528717041,2341.9,308.3,Migros,supermarket
935,3001460383,1170,Domänenstrasse 3,47.440860748291,9.39433193206787,1175.6,195.9,Migros,supermarket
936,3001460403,1825,Schönbüelpark 7,47.4410133361816,9.41225528717041,2341.9,308.3,Migros,supermarket
937,3001460593,1360,Helvetiastrasse 54,47.4345283508301,9.39608287811279,802.8,143.5,Migros,supermarket
938,3001460566,950,Oberstrasse 65,47.416748046875,9.36429977416992,3775.7,426.6,Migros,supermarket
939,3001463476,890,Berneggstr. 52,47.419017791748,9.37270641326904,3459.3,448.6,Migros,supermarket
940,3001462816,1690,Zilweg 14,47.4418754577637,9.4097900390625,2134.6,283.5,Migros,supermarket
941,3001442121,1550,Langgasse 5,47.4342079162598,9.38436317443848,995.8,153.9,Migros,supermarket
942,3001446965,1500,Guggeienhof 1a,47.4468307495117,9.40468502044678,2512.2,306.5,Migros,supermarket
943,3001451369,990,Helvetiastrasse 41,47.4332618713379,9.3950719833374,938.4,162.0,Migros,supermarket
944,3001464617,1070,Tigerbergstrasse 2,47.4277496337891,9.37399578094482,2350.0,295.4,Migros,supermarket
945,3001463609,1390,Dreilindenhang 4,47.422737121582,9.38334083557129,3260.7,400.5,Migros,supermarket
946,3001464185,1590,Spisergasse 29,47.4246368408203,9.37842750549316,3103.4,470.2,Migros,supermarket
947,3001462415,1690,Büchelstrasse 4,47.4205780029297,9.36482524871826,3301.1,395.8,Migros,supermarket
948,3001462510,1780,Sternackerstrasse 5,47.4262962341309,9.38365173339844,2326.8,307.8,Migros,supermarket
949,3001464371,1825,Magniberg 4,47.429313659668,9.37764644622803,1815.4,238.1,Migros,supermarket
950,3001464187,2300,Furglerstr. 14,47.422290802002,9.35991764068604,5176.5,475.0,Migros,supermarket
951,3001464415,1220,Brühlbleichestrasse,47.4301338195801,9.3830680847168,1689.9,246.6,Migros,supermarket
952,3001466856,1180,Langweidstrasse 4,47.4123268127441,9.35518360137939,4951.6,548.9,Migros,supermarket
953,3001468413,1590,Langgasse 153,47.449104309082,9.39769840240479,2200.6,286.2,Migros,supermarket
954,3001470583,2150,Dufourstrasse 4,47.4352416992188,9.38398742675781,1014.2,157.5,Migros,supermarket
955,3001442287,1380,Treuackerstrasse 34,47.415397644043,9.36264228820801,3969.3,460.0,Migros,supermarket
956,3001451526,940,Engelgasse 8,47.4263572692871,9.37482452392578,2255.9,297.6,Migros,supermarket
957,3001451843,1380,Wiesentalstr. 14,47.4329490661621,9.39658451080322,1117.3,188.1,Migros,supermarket
958,3001451857,1670,Rehburgstrasse 1,47.4315147399902,9.39706230163574,1774.0,273.2,Migros,supermarket
959,3001454103,1180,Langgasse 46,47.4370613098145,9.38827133178711,948.3,171.8,Migros,supermarket
960,3001454127,1590,Langgasse 46,47.4370613098145,9.38827133178711,948.3,171.8,Migros,supermarket
961,3001456385,740,Rehetobelstr. 2,47.4330062866211,9.39983940124512,1129.1,194.0,Migros,supermarket
962,3001456527,840,Rorschacher Strasse 183,47.4329643249512,9.39859294891357,1067.7,183.5,Migros,supermarket
963,3001456492,1660,Brauerstrasse 85b,47.4431800842285,9.4091739654541,2952.7,386.7,Migros,supermarket
964,3001461360,1960,Fürstenlandstrasse 19,47.4148483276367,9.35318183898926,4329.5,481.2,Migros,supermarket
965,3001465599,1240,Moosbruggstrasse 5,47.4236755371094,9.37952136993408,2440.5,296.1,Migros,supermarket
966,3001467270,890,Burgstrasse 80,47.4170188903809,9.35645389556885,3991.5,451.0,Migros,supermarket
967,3001468434,1660,Falkensteinstrasse 72,47.4314270019531,9.39884471893311,1471.0,254.7,Migros,supermarket
968,3001470695,1340,Höhenweg 13,47.4295043945312,9.37237071990967,2292.1,329.4,Migros,supermarket
969,3001470708,1835,Linsebühlstrasse 99,47.4259910583496,9.38535594940186,2352.0,325.7,Migros,supermarket
970,108761792,1745,Berneggstrasse 28,47.4208984375,9.37622547149658,20702.2,1088.8,Shopping Arena,supermarket
971,2147994348,1720,Heiligkreuzstrasse 53,47.4404067993164,9.3939847946167,21906.2,1100.5,Shopping Arena,supermarket
972,3000166218,1150,Lindenstrasse 76,47.4330558776855,9.39382934570312,20813.2,993.1,Shopping Arena,supermarket
973,3000251780,1390,Feldlistrasse 11,47.4216995239258,9.35613536834717,19624.5,956.3,Shopping Arena,supermarket
974,3000402506,2130,Goliathgasse 37,47.4279747009277,9.37712287902832,20568.8,1060.1,Shopping Arena,supermarket
975,3000538335,1330,Oberstrasse 87,47.4164085388184,9.36261463165283,20020.4,1001.5,Shopping Arena,supermarket
976,3000688515,1200,Langgasse 155,47.449348449707,9.39771270751953,23005.8,1177.9,Shopping Arena,supermarket
977,3000780700,1120,Oberstrasse 123,47.4147109985352,9.35912609100342,20350.2,1031.4,Shopping Arena,supermarket
978,3000830705,1540,Sonnrainweg 6,47.4482727050781,9.39763641357422,22960.6,1178.7,Shopping Arena,supermarket
979,3000836173,1090,Langgasse 89,47.4400329589844,9.39156341552734,21791.2,1066.2,Shopping Arena,supermarket
980,3000861228,1540,Sonnrainweg 12,47.4477005004883,9.39766311645508,23024.6,1187.9,Shopping Arena,supermarket
981,3000872761,1180,Linsebühlstrasse 16,47.4243240356445,9.38075637817383,20928.4,1080.6,Shopping Arena,supermarket
982,3000873636,1640,Ludwigstr. 21,47.4412498474121,9.37837314605713,22221.9,1129.9,Shopping Arena,supermarket
983,3000873652,900,Tschudistr. 36,47.4163856506348,9.36409378051758,20267.6,1048.0,Shopping Arena,supermarket
984,3000873750,1150,St. Georgen-Str. 39,47.4195594787598,9.37901306152344,20945.7,1079.5,Shopping Arena,supermarket
985,3000888275,1240,Langgasse 70,47.4388046264648,9.39048862457275,21633.8,1052.1,Shopping Arena,supermarket
986,3000922116,1454,Dianastrasse 10,47.4327964782715,9.38241004943848,21345.0,1032.3,Shopping Arena,supermarket
987,3000924363,790,Brauerstrasse 5,47.4337387084961,9.39980602264404,21544.3,1058.3,Shopping Arena,supermarket
988,3000929497,1250,Eisengasse 3,47.4253387451172,9.38271808624268,21114.7,1105.6,Shopping Arena,supermarket
989,3000939647,1550,Ludwigstr. 17,47.4409484863281,9.37808418273926,22182.1,1124.0,Shopping Arena,supermarket
990,3000943788,1370,Buchentalstrasse 5,47.4334945678711,9.39832019805908,21488.0,1053.5,Shopping Arena,supermarket
991,3000946773,1540,Langgasse 92,47.4403915405273,9.39240264892578,21861.9,1072.6,Shopping Arena,supermarket
992,3000946809,1400,Feldbachstrasse 10,47.4207611083984,9.3547191619873,19796.5,984.7,Shopping Arena,supermarket
993,3000955021,2120,Sonnenhaldenstrasse 64,47.4397735595703,9.38191032409668,21739.9,1056.5,Shopping Arena,supermarket
994,3000969216,910,Helvetiastrasse 41,47.4332618713379,9.3950719833374,21039.4,1034.5,Shopping Arena,supermarket
995,3000975218,1400,Schwalbenstrasse 10,47.427001953125,9.38384819030762,21716.2,1098.1,Shopping Arena,supermarket
996,3000976414,1150,St. Georgen-Str. 39,47.4195594787598,9.37901306152344,20945.7,1079.5,Shopping Arena,supermarket
997,3000981079,1690,Altmannstrasse 18,47.4130172729492,9.36433792114258,20759.9,1067.2,Shopping Arena,supermarket
998,3000999080,1500,Bernhardswiesstrasse 9,47.4086647033691,9.34245109558105,17058.6,956.9,Shopping Arena,supermarket
999,3000999081,1070,Bernhardswiesstrasse 11,47.4083480834961,9.34207916259766,17081.2,959.2,Shopping Arena,supermarket
1000,3001014618,1860,Isenringweg 3,47.420238494873,9.35236835479736,20020.9,1003.3,Shopping Arena,supermarket
1001,3001016630,1290,Langgasse 165,47.4505348205566,9.39797592163086,23135.7,1189.5,Shopping Arena,supermarket
1002,3001027277,1790,Stahlstr. 5,47.4210357666016,9.35638999938965,19924.0,1000.5,Shopping Arena,supermarket
1003,3001030845,1610,Burgstrasse 64,47.4174880981445,9.35832500457764,19889.4,994.8,Shopping Arena,supermarket
1004,3001030847,1380,Burgstrasse 64,47.4174880981445,9.35832500457764,19889.4,994.8,Shopping Arena,supermarket
1005,3001030848,1900,Burgstrasse 64,47.4174880981445,9.35832500457764,19889.4,994.8,Shopping Arena,supermarket
1006,3001031567,1390,Zilstrasse 4a,47.4408798217773,9.4041633605957,22342.6,1158.6,Shopping Arena,supermarket
1007,3001042243,1350,Bleichestrasse 11,47.4216804504395,9.37221050262451,20196.3,1001.2,Shopping Arena,supermarket
1008,3001042251,1490,Achslenstr. 5,47.4326629638672,9.41385936737061,22636.1,1169.9,Shopping Arena,supermarket
1009,3001042300,1290,Zilstrasse 14,47.4414825439453,9.40545177459717,23602.9,1187.8,Shopping Arena,supermarket
1010,3001052159,2000,Kirchlistrasse 1,47.4400367736816,9.37997150421143,21900.5,1083.5,Shopping Arena,supermarket
1011,3001052160,1100,Kirchlistrasse 1,47.4400367736816,9.37997150421143,21900.5,1083.5,Shopping Arena,supermarket
1012,3001077557,990,Grossackerstr. 10,47.4292640686035,9.39270114898682,21142.0,1032.0,Shopping Arena,supermarket
1013,3001077667,760,Sonnrainweg 6,47.4482727050781,9.39763641357422,22960.6,1178.7,Shopping Arena,supermarket
1014,3001077672,1270,Langgasse 163,47.4503021240234,9.39786911010742,23110.1,1187.2,Shopping Arena,supermarket
1015,3001082656,1070,Langgasse 63,47.4384689331055,9.3895092010498,21757.3,1071.2,Shopping Arena,supermarket
1016,3001091170,1620,Tablatstr. 12,47.4376907348633,9.42048072814941,23179.6,1094.6,Shopping Arena,supermarket
1017,3001093133,1590,Spisergasse 27,47.4246826171875,9.37836074829102,21615.4,1257.7,Shopping Arena,supermarket
1018,3001095313,1350,Vogelherdstrasse 19,47.4366264343262,9.42048454284668,23923.3,1194.3,Shopping Arena,supermarket
1019,3001096690,1620,Demutstrasse 7,47.4175682067871,9.38098335266113,21268.9,1110.5,Shopping Arena,supermarket
1020,3001096691,1590,Demutstrasse 7,47.4175682067871,9.38098335266113,21268.9,1110.5,Shopping Arena,supermarket
1021,3001100107,1150,Glaserstrasse 3A,47.4188766479492,9.35424995422363,19841.0,976.7,Shopping Arena,supermarket
1022,3001102989,1180,Büchelstrasse 4,47.4205780029297,9.36482524871826,19349.3,953.2,Shopping Arena,supermarket
1023,3001111355,1450,Zilweg 7,47.442310333252,9.40835094451904,23676.0,1187.5,Shopping Arena,supermarket
1024,3001117101,1390,Feldbachstrasse 10,47.4207611083984,9.3547191619873,19796.5,984.7,Shopping Arena,supermarket
1025,3001118234,1140,Langgasse 11,47.4346084594727,9.38476085662842,21053.9,995.5,Shopping Arena,supermarket
1026,3001120687,1300,Speicherstr. 27,47.4247703552246,9.38499069213867,21257.8,1110.4,Shopping Arena,supermarket
1027,3001124068,1650,Fürstenlandstrasse 179,47.4093055725098,9.33209800720215,15605.8,807.7,Shopping Arena,supermarket
1028,3001133982,1690,Zilweg 10,47.4417991638184,9.40919876098633,23738.0,1196.5,Shopping Arena,supermarket
1029,3001134003,1293,Iddastr. 19,47.436710357666,9.38644790649414,21284.6,1032.3,Shopping Arena,supermarket
1030,3001134382,2200,Heimstr. 8a,47.4148788452148,9.33783340454102,16465.2,895.9,Shopping Arena,supermarket
1031,3001142255,1950,Katharinengasse 8,47.4267997741699,9.3772439956665,20565.1,1056.1,Shopping Arena,supermarket
1032,3001142256,1900,Katharinengasse 8,47.4267997741699,9.3772439956665,20565.1,1056.1,Shopping Arena,supermarket
1033,3001145344,1500,Röschstrasse 11,47.4319686889648,9.40022945404053,21557.9,1093.2,Shopping Arena,supermarket
1034,3001145410,1390,Oberstrasse 205,47.4121780395508,9.35199928283691,17687.6,1050.3,Shopping Arena,supermarket
1035,3001145546,1870,Stahlstrasse 9,47.4213943481445,9.35567760467529,19856.4,990.3,Shopping Arena,supermarket
1036,3001145712,1300,Oststr. 7,47.4309387207031,9.39225673675537,20981.0,1030.1,Shopping Arena,supermarket
1037,3001145713,1200,Oststr. 7,47.4309387207031,9.39225673675537,20981.0,1030.1,Shopping Arena,supermarket
1038,3001145758,1100,Langgasse 59c,47.4384803771973,9.38886642456055,21556.2,1072.9,Shopping Arena,supermarket
1039,3001146643,900,Paradiesstrasse 29,47.4177627563477,9.36205863952637,19854.2,1000.1,Shopping Arena,supermarket
1040,3001154674,1350,Langgasse 155,47.449348449707,9.39771270751953,23005.8,1177.9,Shopping Arena,supermarket
1041,3001158513,1290,Grütlistrasse 6,47.4346389770508,9.40295505523682,21846.9,1093.3,Shopping Arena,supermarket
1042,3001167228,1307,Langgasse 155,47.449348449707,9.39771270751953,23005.8,1177.9,Shopping Arena,supermarket
1043,3001172304,1050,Lukasstrasse 3,47.4398574829102,9.39527797698975,21846.9,1098.6,Shopping Arena,supermarket
1044,3001174557,1060,Felsenstrasse 78,47.4196395874023,9.37182903289795,20339.8,1035.8,Shopping Arena,supermarket
1045,3001175366,1370,Sonnenhaldenstrasse 19,47.4405136108398,9.3912525177002,22204.1,1112.0,Shopping Arena,supermarket
1046,3001175690,1484,Aeplistrasse 5,47.4345512390137,9.38718509674072,20956.4,992.1,Shopping Arena,supermarket
1047,3001177098,1355,Burenbüchelstr. 9,47.4359474182129,9.41016292572021,22515.6,1166.4,Shopping Arena,supermarket
1048,3001177658,1750,Ullmannstrasse 27,47.4132843017578,9.33195877075195,16349.7,903.1,Shopping Arena,supermarket
1049,3001183466,760,Unterstr. 53,47.418342590332,9.3661994934082,19611.8,966.1,Shopping Arena,supermarket
1050,3001184167,890,St. Georgen-Strasse 118,47.4153137207031,9.38610649108887,21801.0,1156.6,Shopping Arena,supermarket
1051,3001187072,1290,Ilgenstrasse 50,47.4165382385254,9.35750961303711,17768.4,1017.3,Shopping Arena,supermarket
1052,3001187814,1480,Redingstrasse 4,47.4271087646484,9.37194442749023,20443.9,1052.3,Shopping Arena,supermarket
1053,3001189594,1360,Hagenbuchstrasse 10,47.4311408996582,9.3983097076416,21807.1,1101.1,Shopping Arena,supermarket
1054,3001190574,1100,Hungerbühlerstrasse 1a,47.4104766845703,9.33370113372803,15835.8,840.2,Shopping Arena,supermarket
1055,3001192364,775,Falkensteinstrasse 5,47.4299926757812,9.39174365997314,21107.0,1029.6,Shopping Arena,supermarket
1056,3001192542,740,Brunnenbergstrasse 10,47.4239501953125,9.38275909423828,21178.9,1116.2,Shopping Arena,supermarket
1057,3001193043,1750,Schmiedgasse 19,47.4238662719727,9.37584400177002,21489.3,1226.9,Shopping Arena,supermarket
1058,3001198085,2850,Hinterlauben 10,47.424747467041,9.37550258636475,21482.4,1224.4,Shopping Arena,supermarket
1059,3001198152,2390,Heiligkreuzstrasse 53,47.4404067993164,9.3939847946167,21906.2,1100.5,Shopping Arena,supermarket
1060,3001198951,1600,Vonwilstrasse 51,47.4194450378418,9.35537147521973,19792.6,981.2,Shopping Arena,supermarket
1061,3001201708,2370,Stauffacherstrasse 5,47.4235572814941,9.36404323577881,19955.0,1012.9,Shopping Arena,supermarket
1062,3001206690,1290,Treuackerstrasse 25,47.4154357910156,9.36357879638672,20454.5,1045.9,Shopping Arena,supermarket
1063,3001207296,2410,Burgstrasse 51,47.4180908203125,9.35981178283691,19757.2,978.9,Shopping Arena,supermarket
1064,3001207526,1350,Burgstrasse 85,47.4163856506348,9.35553169250488,17548.7,984.4,Shopping Arena,supermarket
1065,3001209766,1850,Oberer Graben 37,47.4225959777832,9.37484836578369,20730.2,1111.2,Shopping Arena,supermarket
1066,3001214688,1530,Waldaustr. 8,47.4199867248535,9.35248279571533,19993.5,1001.3,Shopping Arena,supermarket
1067,3001219305,995,Burgstrasse 21,47.4193382263184,9.36314487457275,19549.0,964.2,Shopping Arena,supermarket
1068,3001222337,1355,Oberstrasse 201,47.4123687744141,9.35126495361328,17265.8,989.7,Shopping Arena,supermarket
1069,3001222348,1375,Oberstrasse 205,47.4121780395508,9.35199928283691,17687.6,1050.3,Shopping Arena,supermarket
1070,3001222804,1520,Wiesentalstr. 26,47.433349609375,9.3979549407959,21206.2,1059.8,Shopping Arena,supermarket
1071,3001223803,1410,Grenzstrasse 2,47.4178924560547,9.35950660705566,19790.6,984.1,Shopping Arena,supermarket
1072,3001224338,1010,Hardungstrasse 63a,47.4254302978516,9.40409088134766,22832.5,1251.8,Shopping Arena,supermarket
1073,3001225087,1400,Turnerstrasse 32,47.4180221557617,9.35484027862549,20025.3,991.0,Shopping Arena,supermarket
1074,3001226202,1590,Goliathgasse 37,47.4279747009277,9.37712287902832,20568.8,1060.1,Shopping Arena,supermarket
1075,3001233790,950,Rorschacher Strasse 183,47.4329643249512,9.39859294891357,21396.1,1034.9,Shopping Arena,supermarket
1076,3001234723,1310,Oberstrasse 255,47.408634185791,9.34397888183594,17591.7,1032.8,Shopping Arena,supermarket
1077,3001235438,1690,Tannenstrasse 32,47.4357986450195,9.3785228729248,21115.4,1095.6,Shopping Arena,supermarket
1078,3001236200,1290,Geltenwilenstrasse 23,47.418327331543,9.3671875,19630.1,959.6,Shopping Arena,supermarket
1079,3001237750,1500,Gottfried-Keller-Strasse 12,47.4202613830566,9.37479496002197,20578.6,1047.8,Shopping Arena,supermarket
1080,3001237758,1390,Tschudistr. 15,47.4173316955566,9.36606597900391,20778.8,1115.1,Shopping Arena,supermarket
1081,3001237759,1170,Krontalstr. 13,47.4327812194824,9.39970684051514,21640.6,1079.9,Shopping Arena,supermarket
1082,3001240014,1260,Kreuzbleichestrasse 8,47.4201164245605,9.35637950897217,19802.3,978.9,Shopping Arena,supermarket
1083,3001246535,1820,Langgasse 11,47.4346084594727,9.38476085662842,21053.9,995.5,Shopping Arena,supermarket
1084,3001246726,1170,Achslenweg 8,47.4349250793457,9.40976142883301,22545.7,1171.1,Shopping Arena,supermarket
1085,3001252594,1160,Haggenstr. 56,47.4062271118164,9.33734130859375,16540.4,897.9,Shopping Arena,supermarket
1086,3001252596,1430,Haggenstr. 58,47.4060325622559,9.33769130706787,16578.3,901.3,Shopping Arena,supermarket
1087,3001253414,3360,Multergasse 6,47.4246520996094,9.37599945068359,21488.2,1220.0,Shopping Arena,supermarket
1088,3001259959,1580,Brauerstrasse 81,47.442699432373,9.41032409667969,23206.2,1133.6,Shopping Arena,supermarket
1089,3001260432,1190,Rickenstrasse 4,47.407772064209,9.33381938934326,16565.9,917.4,Shopping Arena,supermarket
1090,3001260433,870,Buchentalstrasse 5,47.4334945678711,9.39832019805908,21488.0,1053.5,Shopping Arena,supermarket
1091,3001261017,1080,Kolumbanstrasse 36,47.4381294250488,9.39186096191406,21607.4,1074.3,Shopping Arena,supermarket
1092,3001262175,900,Burgstrasse 66,47.4173927307129,9.35795593261719,19919.4,997.6,Shopping Arena,supermarket
1093,3001262720,1650,Wildeggstrasse 25,47.4238510131836,9.38372230529785,21363.9,1162.1,Shopping Arena,supermarket
1094,3001264914,1000,Domänenstrasse 2,47.4405937194824,9.39426136016846,21944.9,1109.1,Shopping Arena,supermarket
1095,3001270299,1200,Falkensteinstrasse 10,47.4299011230469,9.39220905303955,21077.5,1025.4,Shopping Arena,supermarket
1096,3001274608,1530,Zweibruggenmühlestrasse 7,47.4072647094727,9.32735157012939,15466.4,829.8,Shopping Arena,supermarket
1097,3001277024,1210,Unterer Graben 39,47.4283866882324,9.37582015991211,20270.9,1014.6,Shopping Arena,supermarket
1098,3001279168,1370,Haggenstr. 86,47.4040832519531,9.33809375762939,17017.5,963.9,Shopping Arena,supermarket
1099,3001279201,1520,Sonnenhaldenstrasse 10a,47.4417457580566,9.39127922058105,22198.4,1119.0,Shopping Arena,supermarket
1100,3001279203,1000,Sonnenhaldenstrasse 8,47.4416007995605,9.39217567443848,22171.5,1112.6,Shopping Arena,supermarket
1101,3001279734,1040,Kräzernstrasse 10,47.4073371887207,9.32496070861816,15485.3,826.4,Shopping Arena,supermarket
1102,3001279823,1490,Solitüdenstrasse 1,47.4126167297363,9.36404991149902,20734.1,1064.4,Shopping Arena,supermarket
1103,3001279899,1350,Sömmerlistrasse,47.4184989929199,9.35178279876709,17506.3,982.1,Shopping Arena,supermarket
1104,3001281270,800,Kolumbanstrasse 47,47.4394798278809,9.39236450195312,21891.7,1093.5,Shopping Arena,supermarket
1105,3001281696,1050,Oberstrasse 81,47.4164695739746,9.36275386810303,20007.9,1000.4,Shopping Arena,supermarket
1106,3001281709,890,Berneggstr. 54,47.4187965393066,9.37232875823975,20768.1,1082.8,Shopping Arena,supermarket
1107,3001284556,860,Taubenstr. 4,47.4360466003418,9.38796520233154,21134.5,1019.4,Shopping Arena,supermarket
1108,3001285527,1170,Langgasse 139,47.4445838928223,9.39579772949219,22402.8,1123.4,Shopping Arena,supermarket
1109,3001285652,700,Oberstrasse 123,47.4147109985352,9.35912609100342,20350.2,1031.4,Shopping Arena,supermarket
1110,3001285654,995,Falkensteinstrasse 5,47.4299926757812,9.39174365997314,21107.0,1029.6,Shopping Arena,supermarket
1111,3001286025,1120,Flurhofstr. 153,47.4323043823242,9.40336227416992,22101.2,1143.1,Shopping Arena,supermarket
1112,3001286515,890,Tannenstrasse 36,47.435977935791,9.37874412536621,21139.8,1099.3,Shopping Arena,supermarket
1113,3001289983,1400,Fidesstrasse 12,47.4321784973145,9.39260673522949,20754.9,990.2,Shopping Arena,supermarket
1114,3001295318,1055,Langgasse 44,47.436882019043,9.38813591003418,21352.7,1026.6,Shopping Arena,supermarket
1115,3001295565,1500,Oberstrasse 293 C,47.4038543701172,9.34081935882568,17015.4,959.8,Shopping Arena,supermarket
1116,3001296047,2100,Waisenhausstrasse 5,47.4242172241211,9.37339401245117,20354.3,1040.9,Shopping Arena,supermarket
1117,3001296351,1390,Spisergasse 29,47.4246368408203,9.37842750549316,21621.7,1259.1,Shopping Arena,supermarket
1118,3001297995,1100,Kirchlistrasse 1,47.4400367736816,9.37997150421143,21900.5,1083.5,Shopping Arena,supermarket
1119,3001298694,1090,Langgasse 153,47.449104309082,9.39769840240479,22979.7,1175.5,Shopping Arena,supermarket
1120,3001298695,1290,Langgasse 163,47.4503021240234,9.39786911010742,23110.1,1187.2,Shopping Arena,supermarket
1121,3001300461,1150,Brühlgasse 30,47.425220489502,9.37834548950195,20709.6,1058.9,Shopping Arena,supermarket
1122,3001300521,1600,Teufener Strasse 123,47.4134178161621,9.36389064788818,20630.2,1048.0,Shopping Arena,supermarket
1123,3001302822,1470,Reherstr. 19,47.4371223449707,9.41578769683838,23383.3,1135.3,Shopping Arena,supermarket
1124,3001302972,1090,Rickenstrasse 4,47.407772064209,9.33381938934326,16565.9,917.4,Shopping Arena,supermarket
1125,3001302995,1450,Tigerbergstrasse 2,47.4277496337891,9.37399578094482,20156.3,1008.5,Shopping Arena,supermarket
1126,3001302996,1410,Grenzstrasse 2,47.4178924560547,9.35950660705566,19790.6,984.1,Shopping Arena,supermarket
1127,3001303220,1190,Rickenstrasse 4,47.407772064209,9.33381938934326,16565.9,917.4,Shopping Arena,supermarket
1128,3001303637,1035,Domänenstrasse 2,47.4405937194824,9.39426136016846,21944.9,1109.1,Shopping Arena,supermarket
1129,3001305224,1230,Hafnerstrasse 8,47.4238777160645,9.38092994689941,21056.2,1102.5,Shopping Arena,supermarket
1130,3001306042,1200,Ruhbergstrasse 63,47.4155731201172,9.36490821838379,20458.9,1074.3,Shopping Arena,supermarket
1131,3001309010,1390,Lindenstr. 33,47.4322128295898,9.38853549957275,20804.0,996.8,Shopping Arena,supermarket
1132,3001309858,1000,Brühlbleichestrasse 10,47.4305038452148,9.38340282440186,21357.6,1081.7,Shopping Arena,supermarket
1133,3001310297,1390,Langgasse 91,47.4401397705078,9.39169311523438,21806.6,1067.6,Shopping Arena,supermarket
1134,3001310505,761,Sonnrainweg 12,47.4477005004883,9.39766311645508,23024.6,1187.9,Shopping Arena,supermarket
1135,3001310526,1780,Landhausstrasse 9,47.4129066467285,9.35278511047363,17420.1,1011.2,Shopping Arena,supermarket
1136,3001311443,925,Gübsenstrasse 90,47.4002265930176,9.30102443695068,14836.1,782.1,Shopping Arena,supermarket
1137,3001311883,840,Rorschacher Strasse 183,47.4329643249512,9.39859294891357,21396.1,1034.9,Shopping Arena,supermarket
1138,3001312809,1290,Zilstrasse 56,47.4436836242676,9.40863132476807,23237.1,1124.1,Shopping Arena,supermarket
1139,3001312835,1480,Kamorstrasse 14,47.4190788269043,9.35215282440186,17597.9,1000.9,Shopping Arena,supermarket
1140,3001312841,1980,Obere Felsenstrasse 2,47.4189987182617,9.37156295776367,20360.0,1036.4,Shopping Arena,supermarket
1141,3001314391,1330,Scheibenackerstrasse 14,47.4295616149902,9.39133739471436,21156.2,1040.1,Shopping Arena,supermarket
1142,3001315241,1380,Ullmannstrasse 23,47.4135284423828,9.33248519897461,16295.3,895.0,Shopping Arena,supermarket
1143,3001315318,990,Burgstrasse 19,47.4193916320801,9.36352825164795,19579.2,968.8,Shopping Arena,supermarket
1144,3001316083,2150,Heimstr. 12,47.4145622253418,9.33732604980469,16465.9,896.1,Shopping Arena,supermarket
1145,3001317298,1420,Rehburgstrasse 1,47.4315147399902,9.39706230163574,21343.4,1057.8,Shopping Arena,supermarket
1146,3001317671,1590,Goliathgasse 37,47.4279747009277,9.37712287902832,20568.8,1060.1,Shopping Arena,supermarket
1147,3001317841,1270,Iddastrasse 30a,47.4375686645508,9.38802242279053,21431.7,1054.3,Shopping Arena,supermarket
1148,3001318294,1290,Linsebühlstrasse 12,47.4242973327637,9.3804931640625,20908.4,1078.8,Shopping Arena,supermarket
1149,3001318375,1490,Brühlbleichestrasse 10,47.4305038452148,9.38340282440186,21357.6,1081.7,Shopping Arena,supermarket
1150,3001319171,1200,Wildeggstrasse 16,47.4232139587402,9.38241863250732,21245.5,1145.0,Shopping Arena,supermarket
1151,3001319741,1350,Wildeggstr. 7,47.4232711791992,9.38164901733398,21195.4,1137.8,Shopping Arena,supermarket
1152,3001319742,1490,Waldaustrasse 2,47.4203186035156,9.35294151306152,19940.6,995.9,Shopping Arena,supermarket
1153,3001320785,1290,Speicherstr. 29,47.4248085021973,9.38529205322266,21280.8,1112.5,Shopping Arena,supermarket
1154,3001321210,1290,Langgasse 36,47.4360466003418,9.38742446899414,21163.7,1023.8,Shopping Arena,supermarket
1155,3001321244,1635,Oberzilstrasse 6,47.4412536621094,9.40854740142822,22545.2,1189.5,Shopping Arena,supermarket
1156,3001321685,1170,Buchwaldstrasse 2,47.4361724853516,9.39269924163818,21341.9,1038.7,Shopping Arena,supermarket
1157,3001327124,1600,Oststrasse 20,47.4316635131836,9.39398384094238,20908.5,1016.4,Shopping Arena,supermarket
1158,3001327633,1150,Linsebühlstrasse 35,47.4245948791504,9.38196849822998,21022.9,1089.2,Shopping Arena,supermarket
1159,3001328642,1200,Badstrasse 8,47.4190864562988,9.35286998748779,19947.7,994.4,Shopping Arena,supermarket
1160,3001328643,1260,Badstrasse 8,47.4190864562988,9.35286998748779,19947.7,994.4,Shopping Arena,supermarket
1161,3001328644,1160,Badstrasse 8,47.4190864562988,9.35286998748779,19947.7,994.4,Shopping Arena,supermarket
1162,3001328645,1160,Badstrasse 8,47.4190864562988,9.35286998748779,19947.7,994.4,Shopping Arena,supermarket
1163,3001328965,1095,Rickenstrasse 20,47.4074401855469,9.33251190185547,16669.6,932.4,Shopping Arena,supermarket
1164,3001328999,1350,Schönbüelpark 12,47.4396553039551,9.41220855712891,23249.1,1123.2,Shopping Arena,supermarket
1165,3001329780,1120,Stationsweg 8,47.4075012207031,9.32912540435791,15863.0,855.5,Shopping Arena,supermarket
1166,3001329858,890,Berneggstrasse 52,47.419017791748,9.37270641326904,20731.1,1077.5,Shopping Arena,supermarket
1167,3001330645,1000,Buchwaldstrasse 2,47.4361724853516,9.39269924163818,21341.9,1038.7,Shopping Arena,supermarket
1168,3001330772,1200,Buchwaldstrasse 2,47.4361724853516,9.39269924163818,21341.9,1038.7,Shopping Arena,supermarket
1169,3001331497,1730,Zwinglistrasse 19,47.4256134033203,9.37030601501465,19779.4,971.0,Shopping Arena,supermarket
1170,3001331624,1560,Langgasse 29,47.4360008239746,9.38662338256836,21204.4,1013.4,Shopping Arena,supermarket
1171,3001332172,590,Sonnenhaldenstrasse 10a,47.4417457580566,9.39127922058105,22198.4,1119.0,Shopping Arena,supermarket
1172,3001334112,1345,Zilweg 13,47.4425430297852,9.40908527374268,23769.6,1203.4,Shopping Arena,supermarket
1173,3001334114,1575,Zilweg 15,47.4427108764648,9.40900611877441,23769.6,1203.4,Shopping Arena,supermarket
1174,3001335398,900,Wildeggstrasse 20,47.4234085083008,9.3829870223999,21293.5,1152.0,Shopping Arena,supermarket
1175,3001335407,1450,Paradiesstrasse 2a,47.419059753418,9.36344051361084,19553.7,986.7,Shopping Arena,supermarket
1176,3001335808,1190,Rorschacher Strasse 229,47.435791015625,9.40303707122803,21856.7,1084.4,Shopping Arena,supermarket
1177,3001336192,1780,Langweidstrasse 2,47.4125061035156,9.35506057739258,17577.2,1031.1,Shopping Arena,supermarket
1178,3001336193,1250,Langweidstrasse 4,47.4123268127441,9.35518360137939,17586.9,1032.6,Shopping Arena,supermarket
1179,3001336198,660,Langweidstrasse 2,47.4125061035156,9.35506057739258,17577.2,1031.1,Shopping Arena,supermarket
1180,3001336200,1980,Langweidstrasse 4,47.4123268127441,9.35518360137939,17586.9,1032.6,Shopping Arena,supermarket
1181,3001336203,2190,Langweidstrasse 8,47.4123954772949,9.35590171813965,17642.7,1040.9,Shopping Arena,supermarket
1182,3001336208,1300,Langweidstrasse 8,47.4123954772949,9.35590171813965,17642.7,1040.9,Shopping Arena,supermarket
1183,3001336213,2340,Langweidstrasse 8,47.4123954772949,9.35590171813965,17642.7,1040.9,Shopping Arena,supermarket
1184,3001336410,1510,Zilweg 11,47.442626953125,9.40856456756592,23769.6,1203.4,Shopping Arena,supermarket
1185,3001337174,1300,Rickenstrasse 4,47.407772064209,9.33381938934326,16565.9,917.4,Shopping Arena,supermarket
1186,3001337225,1440,Bernhardswiesstrasse 34,47.4072074890137,9.33975696563721,16767.9,940.2,Shopping Arena,supermarket
1187,3001339504,1420,Hechtackerstrasse 12g,47.4076156616211,9.34005165100098,16888.5,952.5,Shopping Arena,supermarket
1188,3001340922,1020,Walserstrasse 4,47.407413482666,9.33434104919434,16482.5,904.2,Shopping Arena,supermarket
1189,3001342548,1250,Hüttenwiesstrasse 9,47.4386978149414,9.40172481536865,21818.3,1102.4,Shopping Arena,supermarket
1190,3001345530,1250,Brühlgasse 50,47.4246788024902,9.37870025634766,21719.0,1281.0,Shopping Arena,supermarket
1191,3001345902,1105,Schwalbenstrasse 10,47.427001953125,9.38384819030762,21716.2,1098.1,Shopping Arena,supermarket
1192,3001346082,1310,Langgasse 153,47.449104309082,9.39769840240479,22979.7,1175.5,Shopping Arena,supermarket
1193,3001346308,2790,Bubenbergstr. 4,47.4184036254883,9.37905502319336,21137.5,1115.0,Shopping Arena,supermarket
1194,3001346929,1340,Bernhardswiesstrasse 33,47.4071235656738,9.34114456176758,17314.9,993.1,Shopping Arena,supermarket
1195,3001347558,1290,Brauerstrasse 1,47.4335517883301,9.39944362640381,21522.3,1063.1,Shopping Arena,supermarket
1196,3001347559,1300,Brauerstrasse 1,47.4335517883301,9.39944362640381,21522.3,1063.1,Shopping Arena,supermarket
1197,3001347688,850,Teufener Strasse 10,47.4206771850586,9.37107753753662,20052.7,990.7,Shopping Arena,supermarket
1198,3001347881,1020,Farbgutstrasse 10,47.4352493286133,9.38732147216797,21090.0,1016.1,Shopping Arena,supermarket
1199,3001348433,1660,Sonnrainweg 8,47.4480819702148,9.39764785766602,22982.2,1181.8,Shopping Arena,supermarket
1200,3001349993,1020,Farbgutstrasse 10,47.4352493286133,9.38732147216797,21090.0,1016.1,Shopping Arena,supermarket
1201,3001350433,1300,Speicherstr. 29,47.4248085021973,9.38529205322266,21280.8,1112.5,Shopping Arena,supermarket
1202,3001350437,1300,Wiesentalstr. 14,47.4329490661621,9.39658451080322,21096.3,1043.5,Shopping Arena,supermarket
1203,3001350438,1240,Iddastrasse 22,47.4367256164551,9.38694858551025,21307.9,1035.8,Shopping Arena,supermarket
1204,3001350623,780,Volksbadstrasse 8,47.428596496582,9.38481998443604,21511.3,1068.1,Shopping Arena,supermarket
1205,3001350678,1695,Langgasse 9,47.434497833252,9.38464164733887,21067.6,996.6,Shopping Arena,supermarket
1206,3001350682,1790,Grenzstrasse 1,47.4178848266602,9.35994911193848,19811.6,987.2,Shopping Arena,supermarket
1207,3001352407,1515,Langgasse 13,47.4346694946289,9.38483333587646,21045.3,994.7,Shopping Arena,supermarket
1208,3001354881,1801,Tablatstrasse 10,47.4377517700195,9.4197244644165,23122.8,1089.6,Shopping Arena,supermarket
1209,3001354883,1685,Tablatstrasse 10c,47.4372634887695,9.41964054107666,23359.3,1110.6,Shopping Arena,supermarket
1210,3001354885,1738,Tablatstrasse 10a,47.4375915527344,9.41968631744385,23111.9,1094.6,Shopping Arena,supermarket
1211,3001356526,1400,Zilstrasse 6,47.4408302307129,9.40460872650146,22426.0,1180.0,Shopping Arena,supermarket
1212,3001361663,1220,Ahornstrasse 23a,47.4143943786621,9.34685325622559,16851.0,921.8,Shopping Arena,supermarket
1213,3001364371,1100,Steingrüeblistrasse 44,47.4266510009766,9.39069271087646,22044.5,1135.8,Shopping Arena,supermarket
1214,3001364396,1110,Steingrüeblistrasse 44,47.4266510009766,9.39069271087646,22044.5,1135.8,Shopping Arena,supermarket
1215,3001364411,1290,Steingrüeblistrasse 44,47.4266510009766,9.39069271087646,22044.5,1135.8,Shopping Arena,supermarket
1216,3001366539,1120,Flurhofstr. 149,47.4323463439941,9.40286731719971,22101.2,1143.1,Shopping Arena,supermarket
1217,3001367439,1240,Iddastrasse 52,47.4397201538086,9.38997077941895,21713.4,1096.4,Shopping Arena,supermarket
1218,3001367477,1440,Lukasstrasse 2,47.4394416809082,9.3950891494751,21802.5,1094.6,Shopping Arena,supermarket
1219,3001369138,1495,Rorschacher Strasse 124,47.4307746887207,9.39366340637207,20948.4,994.8,Shopping Arena,supermarket
1220,3001369684,1290,Torstrasse 20,47.428035736084,9.37781524658203,20415.9,1030.3,Shopping Arena,supermarket
1221,3001369750,1396,Tablatstrasse 10c,47.4372634887695,9.41964054107666,23359.3,1110.6,Shopping Arena,supermarket
1222,3001369751,1290,Tablatstrasse 10c,47.4372634887695,9.41964054107666,23359.3,1110.6,Shopping Arena,supermarket
1223,3001370273,840,Höhenweg 11,47.429615020752,9.3725414276123,20538.1,1051.6,Shopping Arena,supermarket
1224,3001370626,1390,Wildeggstrasse 19,47.4235343933105,9.38277435302734,21284.4,1150.7,Shopping Arena,supermarket
1225,3001371343,1350,Sömmerlistrasse,47.4184989929199,9.35178279876709,17506.3,982.1,Shopping Arena,supermarket
1226,3001372173,1660,Falkensteinstrasse 72,47.4314270019531,9.39884471893311,21436.6,1069.6,Shopping Arena,supermarket
1227,3001377914,1530,Linsebühlstrasse 14,47.4243087768555,9.38061618804932,20917.7,1079.7,Shopping Arena,supermarket
1228,3001378309,1550,Kugelgasse 3,47.4257469177246,9.37753963470459,20629.7,1051.7,Shopping Arena,supermarket
1229,3001379324,1700,Ullmannstrasse 23b,47.4129486083984,9.33236312866211,16184.7,884.7,Shopping Arena,supermarket
1230,3001380381,1215,Rosenbergweg 21,47.4219932556152,9.36234951019287,18910.0,884.2,Shopping Arena,supermarket
1231,3001380399,1350,Rosenbergweg 21,47.4219932556152,9.36234951019287,18910.0,884.2,Shopping Arena,supermarket
1232,3001380521,785,Pelikanstrasse 21,47.4372100830078,9.39230251312256,21465.5,1054.6,Shopping Arena,supermarket
1233,3001380606,785,Burgstrasse 19,47.4193916320801,9.36352825164795,19579.2,968.8,Shopping Arena,supermarket
1234,3001380667,1360,Rickenstrasse 20,47.4074401855469,9.33251190185547,16669.6,932.4,Shopping Arena,supermarket
1235,3001380921,710,Ruhbergstrasse 48,47.4149131774902,9.36348438262939,20330.1,1054.9,Shopping Arena,supermarket
1236,3001381315,1350,Sonnrainweg 14,47.4475479125977,9.39769744873047,23041.8,1190.4,Shopping Arena,supermarket
1237,3001382303,1730,Kesselhaldenstrasse 6,47.4384689331055,9.40322494506836,21960.0,1108.6,Shopping Arena,supermarket
1238,3001382682,2450,St Georgen Str. 20,47.4228096008301,9.38051223754883,21149.6,1137.9,Shopping Arena,supermarket
1239,3001383681,1140,Bedastrasse 11,47.4286613464355,9.39088344573975,21249.1,1058.0,Shopping Arena,supermarket
1240,3001384071,1440,Hechtackerstrasse 12d,47.4075241088867,9.33936977386475,16722.1,929.2,Shopping Arena,supermarket
1241,3001385146,650,Brauerstrasse 3,47.4337310791016,9.39962577819824,21534.4,1066.0,Shopping Arena,supermarket
1242,3001385241,1600,Ludwigstr. 15,47.4408416748047,9.37835311889648,22107.8,1114.5,Shopping Arena,supermarket
1243,3001385255,1430,Langgasse 159,47.4499473571777,9.39748668670654,23070.3,1183.6,Shopping Arena,supermarket
1244,3001385379,1919,Vogelherdstr. 17,47.4366302490234,9.41966819763184,23392.4,1113.6,Shopping Arena,supermarket
1245,3001386086,1290,Zilstrasse 10,47.4411582946777,9.40502548217773,22409.5,1176.0,Shopping Arena,supermarket
1246,3001387524,890,Oberstrasse 65,47.416748046875,9.36429977416992,19889.9,990.0,Shopping Arena,supermarket
1247,3001387933,1920,Ullmannstrasse 23a,47.4133110046387,9.33245658874512,16349.7,903.1,Shopping Arena,supermarket
1248,3001389161,1100,Rosenbergstrasse 64,47.4233627319336,9.36717796325684,19400.0,930.2,Shopping Arena,supermarket
1249,3001389165,1190,Helvetiastrasse 51,47.4341926574707,9.39534091949463,21235.3,1075.0,Shopping Arena,supermarket
1250,3001389167,1750,Obere Büschenstrasse 10,47.4247970581055,9.38028240203857,20871.9,1078.4,Shopping Arena,supermarket
1251,3001389168,2190,Fürstenlandstrasse 135,47.4106826782227,9.33879375457764,16219.9,891.5,Shopping Arena,supermarket
1252,3001389931,1200,Neugasse 35,47.4247093200684,9.37479877471924,20235.0,1024.6,Shopping Arena,supermarket
1253,3001390742,1840,Lukasstrasse 41,47.4388809204102,9.40090847015381,21822.6,1095.7,Shopping Arena,supermarket
1254,3001394636,1470,Leuenbergerstrasse 2,47.4173431396484,9.34955787658691,17318.6,980.5,Shopping Arena,supermarket
1255,3001394899,1310,Langgasse 157,47.4497146606445,9.39772891998291,23046.5,1181.5,Shopping Arena,supermarket
1256,3001394909,1560,Favrestrasse 19,47.437198638916,9.41196441650391,23494.5,1140.6,Shopping Arena,supermarket
1257,3001396200,1540,Lehnstrasse 104a,47.4062080383301,9.3261137008667,15615.2,856.0,Shopping Arena,supermarket
1258,3001396208,1090,Brauerstr. 47,47.4372138977051,9.40369892120361,21999.7,1119.8,Shopping Arena,supermarket
1259,3001397727,1180,Zweibruggenmühlestrasse 5,47.4071960449219,9.32706451416016,15446.0,826.9,Shopping Arena,supermarket
1260,3001398196,1550,Lukasstrasse 36a,47.4386253356934,9.39911842346191,21993.8,1127.0,Shopping Arena,supermarket
1261,3001398462,1500,Linsebühlstrasse 99,47.4259910583496,9.38535594940186,21792.2,1104.3,Shopping Arena,supermarket
1262,3001400894,1825,Schönbüelpark 7,47.4410133361816,9.41225528717041,23279.9,1125.9,Shopping Arena,supermarket
1263,3001402706,1010,Domänenstrasse 3,47.440860748291,9.39433193206787,21964.2,1112.1,Shopping Arena,supermarket
1264,3001402756,1480,Dufourstrasse 153,47.4226188659668,9.35810947418213,19698.5,962.0,Shopping Arena,supermarket
1265,3001403510,1540,Burgstrasse 31,47.4190368652344,9.36180973052979,19578.4,973.6,Shopping Arena,supermarket
1266,3001403636,690,Löwengasse,47.4253807067871,9.37762355804443,20661.0,1054.5,Shopping Arena,supermarket
1267,3001403823,855,Vonwilstrasse 51,47.4194450378418,9.35537147521973,19792.6,981.2,Shopping Arena,supermarket
1268,3001404034,1490,Tablatstr. 12,47.4376907348633,9.42048072814941,23179.6,1094.6,Shopping Arena,supermarket
1269,3001404132,1200,Treuackerstrasse 34,47.415397644043,9.36264228820801,20519.3,1055.4,Shopping Arena,supermarket
1270,3001404387,1430,Burenbüchelstr. 11,47.4361267089844,9.41000270843506,22511.0,1165.8,Shopping Arena,supermarket
1271,3001404411,1897,Feldlistr. 7,47.4215202331543,9.35657405853271,19586.9,952.8,Shopping Arena,supermarket
1272,3001405131,890,Achslenstr. 1,47.4336280822754,9.41360855102539,22576.0,1153.4,Shopping Arena,supermarket
1273,3001405132,1420,Tannenstr. 44,47.4366645812988,9.37887763977051,21214.9,1110.6,Shopping Arena,supermarket
1274,3001405208,1450,Hechtackerstrasse 14a,47.4082489013672,9.3399715423584,16783.2,921.1,Shopping Arena,supermarket
1275,3001406256,890,Helvetiastrasse 41,47.4332618713379,9.3950719833374,21039.4,1034.5,Shopping Arena,supermarket
1276,3001406265,1170,Burenbüchelstrasse 18a,47.4357681274414,9.41106510162354,22630.8,1190.9,Shopping Arena,supermarket
1277,3001407281,795,Metzgergasse 29,47.4272117614746,9.37481021881104,20154.1,1011.1,Shopping Arena,supermarket
1278,3001407405,1590,Obere Berneggstrasse 79,47.4128341674805,9.36686229705811,20929.6,1081.0,Shopping Arena,supermarket
1279,3001407521,770,Rappensteinweg 3,47.4325866699219,9.40242767333984,21794.8,1128.6,Shopping Arena,supermarket
1280,3001408605,1400,Kreuzbleichestrasse 7,47.4201011657715,9.35677814483643,19805.2,979.3,Shopping Arena,supermarket
1281,3001408867,1290,Engelgasse 5,47.4263572692871,9.3745059967041,22334.5,1129.3,Shopping Arena,supermarket
1282,3001409150,749,Spiessergasse 43,47.4244956970215,9.37917041778564,21719.0,1281.0,Shopping Arena,supermarket
1283,3001409151,749,Spiessergasse 43,47.4244956970215,9.37917041778564,21719.0,1281.0,Shopping Arena,supermarket
1284,3001410662,1120,Flurhofstr. 155,47.4323310852051,9.40382099151611,22035.5,1110.3,Shopping Arena,supermarket
1285,3001412186,1730,Ahornstrasse 23a,47.4143943786621,9.34685325622559,16851.0,921.8,Shopping Arena,supermarket
1286,3001412963,1240,Langgasse 36,47.4360466003418,9.38742446899414,21163.7,1023.8,Shopping Arena,supermarket
1287,3001413248,929,Buchentalstrasse 6,47.4335479736328,9.39856815338135,21483.8,1052.9,Shopping Arena,supermarket
1288,3001413398,1250,Speicherstr. 25,47.4247360229492,9.38468456268311,21234.4,1108.3,Shopping Arena,supermarket
1289,3001413400,1300,Wiesentalstr. 12,47.4329223632812,9.39637470245361,21080.6,1041.1,Shopping Arena,supermarket
1290,3001413836,1370,Bernhardswiesstrasse 11,47.4083480834961,9.34207916259766,17081.2,959.2,Shopping Arena,supermarket
1291,3001414565,1270,Furglerstr. 8,47.4221458435059,9.35859775543213,19869.2,993.0,Shopping Arena,supermarket
1292,3001415388,855,Zürcher Strasse 70,47.4174957275391,9.35018253326416,17300.9,959.8,Shopping Arena,supermarket
1293,3001415640,1820,Burenbüchelstrasse 16,47.4356880187988,9.41069984436035,22537.6,1169.7,Shopping Arena,supermarket
1294,3001416060,690,Linsebühlstrasse 66,47.4248428344727,9.38330936431885,21133.2,1105.3,Shopping Arena,supermarket
1295,3001416181,1040,Stationsweg 6,47.4076118469238,9.32946395874023,15834.9,851.3,Shopping Arena,supermarket
1296,3001416434,300,Girtannerstrasse 19,47.4355659484863,9.37706089019775,21126.7,1106.8,Shopping Arena,supermarket
1297,3001416435,4400,Girtannerstrasse 19,47.4355659484863,9.37706089019775,21126.7,1106.8,Shopping Arena,supermarket
1298,3001416436,300,Girtannerstrasse 19,47.4355659484863,9.37706089019775,21126.7,1106.8,Shopping Arena,supermarket
1299,3001416883,650,Stauffacherstrasse 7,47.4234428405762,9.36355876922607,19993.6,1018.4,Shopping Arena,supermarket
1300,3001418295,1600,St. Leonhard-Strasse 79,47.4210205078125,9.36458396911621,19226.9,925.0,Shopping Arena,supermarket
1301,3001425963,1390,Iddastrasse 41,47.4391632080078,9.38868999481201,21610.5,1081.0,Shopping Arena,supermarket
1302,3001422307,1320,Langgasse 92,47.4403915405273,9.39240264892578,21861.9,1072.6,Shopping Arena,supermarket
1303,3001419785,1790,Hagenbuchstrasse 31,47.4297485351562,9.40007019042969,21839.6,1111.2,Shopping Arena,supermarket
1304,3001443923,2090,Lukasstrasse 41,47.4388809204102,9.40090847015381,21822.6,1095.7,Shopping Arena,supermarket
1305,3001447249,1595,Burenbüchelstr. 11,47.4361267089844,9.41000270843506,22511.0,1165.8,Shopping Arena,supermarket
1306,3001452012,1395,Rosenbergweg 19,47.4218940734863,9.36297130584717,19378.8,944.9,Shopping Arena,supermarket
1307,3001454132,1200,Langgasse 46,47.4370613098145,9.38827133178711,21374.9,1028.6,Shopping Arena,supermarket
1308,3001454155,1360,Langgasse 46,47.4370613098145,9.38827133178711,21374.9,1028.6,Shopping Arena,supermarket
1309,3001418253,1900,Oberstrasse 218,47.4120750427246,9.34844779968262,17031.4,951.6,Shopping Arena,supermarket
1310,3001419783,1490,Hagenbuchstrasse 31a,47.4298248291016,9.40028095245361,21854.4,1113.4,Shopping Arena,supermarket
1311,3001457002,850,Linsebühlstrasse 66,47.4248428344727,9.38330936431885,21133.2,1105.3,Shopping Arena,supermarket
1312,3001457010,1300,Linsebühlstrasse 16,47.4243240356445,9.38075637817383,20928.4,1080.6,Shopping Arena,supermarket
1313,3001457042,1390,Vonwilstrasse 51,47.4194450378418,9.35537147521973,19792.6,981.2,Shopping Arena,supermarket
1314,3001456554,1500,Rorschacher Strasse 155,47.4317054748535,9.39577102661133,21134.3,1011.5,Shopping Arena,supermarket
1315,3001457039,1570,Feldbachstrasse 4,47.4211158752441,9.35555934906006,19871.2,995.8,Shopping Arena,supermarket
1316,3001421370,1340,Iddastrasse,47.4354095458984,9.38514137268066,21106.1,1005.5,Shopping Arena,supermarket
1317,3001457041,2445,Vonwilstrasse 51,47.4194450378418,9.35537147521973,19792.6,981.2,Shopping Arena,supermarket
1318,3001465079,790,Lustgartenstrasse 14,47.421028137207,9.3643627166748,19268.5,940.3,Shopping Arena,supermarket
1319,3001465093,1050,Dietlistrasse 35,47.4257621765137,9.36223983764648,18470.8,850.6,Shopping Arena,supermarket
1320,3001465787,1305,Spyristrasse 9,47.4368362426758,9.39242649078369,21432.0,1051.8,Shopping Arena,supermarket
1321,3001465804,1550,Teufener Strasse 123,47.4134178161621,9.36389064788818,20630.2,1048.0,Shopping Arena,supermarket
1322,3001467360,2630,Goethestrasse 44,47.4369812011719,9.38311100006104,21442.2,1039.0,Shopping Arena,supermarket
1323,3001468698,700,Sonnenhaldenstrasse 10b,47.4414405822754,9.39097785949707,22215.2,1104.8,Shopping Arena,supermarket
1324,3001468697,1670,Hechtackerstrasse 14a,47.4082489013672,9.3399715423584,16783.2,921.1,Shopping Arena,supermarket
1325,3001468690,1490,Schönbüelpark 12,47.4396553039551,9.41220855712891,23249.1,1123.2,Shopping Arena,supermarket
1326,3001468678,1570,Hubertusstr. 2,47.4333152770996,9.40306282043457,21750.7,1082.5,Shopping Arena,supermarket
1327,3001413023,1343,Schönauweg 9,47.4179878234863,9.34551239013672,17398.4,982.9,Shopping Arena,supermarket
1328,3001315315,1340,Feldbachstrasse 7,47.4210090637207,9.3557186126709,19873.4,996.2,Shopping Arena,supermarket
1329,3001004255,1325,Poststrasse 16,47.4245719909668,9.37232494354248,20358.7,1036.6,Shopping Arena,supermarket
1330,3001304110,1325,Linsebühlstrasse 103,47.4261894226074,9.38566780090332,21760.0,1099.4,Shopping Arena,supermarket
1331,3001422233,1200,Feldlistrasse 17,47.4221534729004,9.35547733306885,19695.5,962.7,Shopping Arena,supermarket
1332,3001423044,1200,Falkensteinstrasse 10,47.4299011230469,9.39220905303955,21077.5,1025.4,Shopping Arena,supermarket
1333,3001426743,1680,Kreuzbleichestrasse 7,47.4201011657715,9.35677814483643,19805.2,979.3,Shopping Arena,supermarket
1334,3001445103,1300,Teufener Strasse 150,47.4106788635254,9.36655139923096,21041.7,1082.0,Shopping Arena,supermarket
1335,3001447741,2110,Wattstrasse 11,47.4105110168457,9.36919021606445,21224.5,1118.8,Shopping Arena,supermarket
1336,3001452236,1662,Sonnrainweg 14,47.4475479125977,9.39769744873047,23041.8,1190.4,Shopping Arena,supermarket
1337,3001454343,718,Tablatstrasse 30b,47.4368362426758,9.41854095458984,23448.8,1118.6,Shopping Arena,supermarket
1338,3001454430,1280,Brühlgasse 50,47.4246788024902,9.37870025634766,21719.0,1281.0,Shopping Arena,supermarket
1339,3001055869,1095,Bedastrasse 11,47.4286613464355,9.39088344573975,21249.1,1058.0,Shopping Arena,supermarket
1340,3001457144,1430,Burenbüchelstr. 11,47.4361267089844,9.41000270843506,22511.0,1165.8,Shopping Arena,supermarket
1341,3001465235,2630,Goethestrasse 44,47.4369812011719,9.38311100006104,21442.2,1039.0,Shopping Arena,supermarket
1342,3001466297,1290,Iddastrasse 60,47.4403495788574,9.39087867736816,21817.7,1112.2,Shopping Arena,supermarket
1343,3001466304,1460,Achslenstr. 1,47.4336280822754,9.41360855102539,22576.0,1153.4,Shopping Arena,supermarket
1344,3001467983,830,Vonwilstrasse 51,47.4194450378418,9.35537147521973,19792.6,981.2,Shopping Arena,supermarket
1345,3001469403,990,Rorschacher Strasse 229,47.435791015625,9.40303707122803,21856.7,1084.4,Shopping Arena,supermarket
1346,3001469080,642,Zwyssigstrasse 20,47.4219284057617,9.34619235992432,17956.4,1016.0,Shopping Arena,supermarket
1347,3001469480,1660,Heiligkreuzstrasse 53,47.4404067993164,9.3939847946167,21906.2,1100.5,Shopping Arena,supermarket
1348,3001469549,1080,Brühlbleichestrasse 10,47.4305038452148,9.38340282440186,21357.6,1081.7,Shopping Arena,supermarket
1349,3001319737,1090,Engelwiesstrasse 5c,47.4123153686523,9.33105659484863,15858.6,840.9,Shopping Arena,supermarket
1350,3001380668,890,Rickenstrasse 20,47.4074401855469,9.33251190185547,16669.6,932.4,Shopping Arena,supermarket
1351,3001180367,890,Wolfgangstrasse 67,47.4027519226074,9.33110809326172,17731.8,1060.9,Shopping Arena,supermarket
1352,3001424552,1750,Langweidstrasse 2,47.4125061035156,9.35506057739258,17577.2,1031.1,Shopping Arena,supermarket
1353,3001418517,1450,Rappensteinstrasse 10,47.4308242797852,9.39835739135742,21805.2,1102.8,Shopping Arena,supermarket
1354,3001419698,1430,Burenbüchelstr. 11,47.4361267089844,9.41000270843506,22511.0,1165.8,Shopping Arena,supermarket
1355,3001440025,900,Teufener Strasse 100,47.4150390625,9.36435222625732,20436.0,1030.6,Shopping Arena,supermarket
1356,3001439654,890,Brauerstrasse 5,47.4337387084961,9.39980602264404,21544.3,1058.3,Shopping Arena,supermarket
1357,3001423019,1380,Buchwaldstrasse 2,47.4361724853516,9.39269924163818,21341.9,1038.7,Shopping Arena,supermarket
1358,3001440057,1720,Favrestrasse 17,47.4372520446777,9.41258144378662,23438.5,1126.5,Shopping Arena,supermarket
1359,3001424963,1375,Kolosseumstr. 10,47.4369201660156,9.3914966583252,21543.2,1068.1,Shopping Arena,supermarket
1360,3001437299,1690,Brauerstrasse 79a,47.4423408508301,9.40994739532471,23190.6,1122.4,Shopping Arena,supermarket
1361,3001440049,1901,Vogelherdstr. 7c,47.4363670349121,9.419264793396,23436.6,1117.6,Shopping Arena,supermarket
1362,3001439759,980,Feldlistrasse 19,47.4223251342773,9.35517120361328,19725.2,965.3,Shopping Arena,supermarket
1363,3001435737,1825,Schönbüelpark 7,47.4410133361816,9.41225528717041,23279.9,1125.9,Shopping Arena,supermarket
1364,3001434755,1370,Ackerstrasse 1,47.4280204772949,9.38988304138184,21313.3,1055.2,Shopping Arena,supermarket
1365,3001434314,1190,Ackerstrasse 1,47.4280204772949,9.38988304138184,21313.3,1055.2,Shopping Arena,supermarket
1366,3001434328,1430,Brauerstr. 15,47.4345664978027,9.40053081512451,21640.2,1072.5,Shopping Arena,supermarket
1367,3001434327,1540,Ilgenstr. 59,47.4158515930176,9.35661315917969,17754.9,1019.9,Shopping Arena,supermarket
1368,3001434318,1650,Multergasse 11,47.4243392944336,9.37596130371094,21482.4,1224.4,Shopping Arena,supermarket
1369,3001422111,1590,Reherstr. 19,47.4371223449707,9.41578769683838,23383.3,1135.3,Shopping Arena,supermarket
1370,3001435754,1220,Brühlbleichestrasse,47.4301338195801,9.3830680847168,21405.9,1088.9,Shopping Arena,supermarket
1371,3001435724,1400,Fidesstrasse 12,47.4321784973145,9.39260673522949,20754.9,990.2,Shopping Arena,supermarket
1372,3001440807,1670,Hechtackerstrasse 12d,47.4075241088867,9.33936977386475,16722.1,929.2,Shopping Arena,supermarket
1373,3001418917,1550,Zilweg 11,47.442626953125,9.40856456756592,23769.6,1203.4,Shopping Arena,supermarket
1374,3001430996,975,Burgstrasse 21,47.4193382263184,9.36314487457275,19549.0,964.2,Shopping Arena,supermarket
1375,3001382329,1500,Otmarstrasse 17,47.4168815612793,9.35732173919678,17707.0,1002.2,Shopping Arena,supermarket
1376,3001430350,2900,Dufourstrasse 114,47.423885345459,9.3627347946167,20078.3,1019.0,Shopping Arena,supermarket
1377,3001430376,1350,Helvetiastrasse 54,47.4345283508301,9.39608287811279,21254.5,1058.6,Shopping Arena,supermarket
1378,3001433230,1490,Solitüdenstrasse 1,47.4126167297363,9.36404991149902,20734.1,1064.4,Shopping Arena,supermarket
1379,3001433974,1100,Brauerstrasse 34,47.4358978271484,9.40302085876465,21905.3,1101.8,Shopping Arena,supermarket
1380,3001432475,2010,Ullmannstrasse 27,47.4132843017578,9.33195877075195,16349.7,903.1,Shopping Arena,supermarket
1381,3001433716,1520,Oberstrasse 255,47.408634185791,9.34397888183594,17591.7,1032.8,Shopping Arena,supermarket
1382,3001425535,1390,Buchwaldstrasse 2,47.4361724853516,9.39269924163818,21341.9,1038.7,Shopping Arena,supermarket
1383,3001432479,1410,Furglerstr. 14,47.422290802002,9.35991764068604,19964.6,1007.3,Shopping Arena,supermarket
1384,3001440543,750,Burgstrasse 80,47.4170188903809,9.35645389556885,17646.0,993.1,Shopping Arena,supermarket
1385,3001441668,1285,Langgasse 11,47.4346084594727,9.38476085662842,21053.9,995.5,Shopping Arena,supermarket
1386,3001441671,1990,Langgasse 11,47.4346084594727,9.38476085662842,21053.9,995.5,Shopping Arena,supermarket
1387,3001441669,1815,Langgasse 9,47.434497833252,9.38464164733887,21067.6,996.6,Shopping Arena,supermarket
1388,3001445240,1590,Hagenbuchstrasse 10,47.4311408996582,9.3983097076416,21807.1,1101.1,Shopping Arena,supermarket
1389,3001385698,1630,Altwinkelnstrasse 17,47.4021606445312,9.30312728881836,14418.2,738.6,Shopping Arena,supermarket
1390,3001321804,1630,Quimbystrasse 7,47.4001235961914,9.29899501800537,14916.7,795.1,Shopping Arena,supermarket
1391,3001251668,1590,Altwinkelnstrasse 15,47.4022254943848,9.30288410186768,14487.0,736.4,Shopping Arena,supermarket
1392,3001170136,1510,Kunklerstrasse 1,47.4062309265137,9.30460929870605,13615.9,659.8,Shopping Arena,supermarket
1393,3001353330,1435,Sonnmattstrasse 33,47.4070587158203,9.31648921966553,14752.1,780.5,Shopping Arena,supermarket
1394,3001079915,1390,Kräzernstrasse 30,47.4067420959473,9.32085132598877,14987.7,788.3,Shopping Arena,supermarket
1395,3001442027,1350,Röschstrasse 14,47.4317283630371,9.39998435974121,21568.8,1094.7,Shopping Arena,supermarket
1396,3001448678,2150,Quimbystrasse 7,47.4001235961914,9.29899501800537,14916.7,795.1,Shopping Arena,supermarket
1397,3001448697,970,Engelgasse 12,47.426586151123,9.37471008300781,22311.8,1124.2,Shopping Arena,supermarket
1398,3001448481,1190,Langgasse 61,47.4383544921875,9.38934993743896,21537.4,1043.2,Shopping Arena,supermarket
1399,3001452624,1660,Zilstrasse 20,47.4422225952148,9.40559959411621,23543.3,1173.4,Shopping Arena,supermarket
1400,3001466592,1560,Martinsbruggstrasse 34,47.4364395141602,9.4097261428833,22401.5,1144.0,Shopping Arena,supermarket
1401,3001466596,1440,Langgasse 36,47.4360466003418,9.38742446899414,21163.7,1023.8,Shopping Arena,supermarket
1402,3001466589,1190,Langgasse 61,47.4383544921875,9.38934993743896,21537.4,1043.2,Shopping Arena,supermarket
1403,3001468333,840,Rorschacher Strasse 183,47.4329643249512,9.39859294891357,21396.1,1034.9,Shopping Arena,supermarket
1404,3001469691,1390,Treuackerstrasse 34,47.415397644043,9.36264228820801,20519.3,1055.4,Shopping Arena,supermarket
1405,3001434052,1150,Buchentalstrasse 23,47.4346313476562,9.39625358581543,21212.3,1044.7,Shopping Arena,supermarket
1406,3001446651,1550,Zilweg 11,47.442626953125,9.40856456756592,23769.6,1203.4,Shopping Arena,supermarket
1407,3001450273,1730,Kunklerstrasse 1,47.4062309265137,9.30460929870605,13615.9,659.8,Shopping Arena,supermarket
1408,3001449586,890,Gartenstrasse 5,47.4217529296875,9.37387847900391,20617.1,1065.2,Shopping Arena,supermarket
1409,3001449308,1825,Schönbüelpark 7,47.4410133361816,9.41225528717041,23279.9,1125.9,Shopping Arena,supermarket
1410,3001449527,1220,Brühlbleichestrasse 10,47.4305038452148,9.38340282440186,21357.6,1081.7,Shopping Arena,supermarket
1411,3001449478,1170,Bogenstrasse 15,47.4191741943359,9.36273384094238,19537.5,967.7,Shopping Arena,supermarket
1412,3001449876,1750,Salisstr. 18,47.4187889099121,9.35576725006104,19876.3,983.0,Shopping Arena,supermarket
1413,3001453376,757,Vogelherdstr. 7c,47.4363670349121,9.419264793396,23436.6,1117.6,Shopping Arena,supermarket
1414,3001455222,1060,Hochwachtstrasse 1,47.413257598877,9.36318778991699,20683.7,1060.1,Shopping Arena,supermarket
1415,3001457663,890,Berneggstr. 52,47.419017791748,9.37270641326904,20731.1,1077.5,Shopping Arena,supermarket
1416,3001457658,1450,Iddastrasse 58,47.4402656555176,9.39069080352783,21800.1,1109.5,Shopping Arena,supermarket
1417,3001457657,1090,Tschudistr. 17,47.4172973632812,9.36594772338867,20769.1,1113.7,Shopping Arena,supermarket
1418,3001457662,1390,Krontalstr. 13,47.4327812194824,9.39970684051514,21640.6,1079.9,Shopping Arena,supermarket
1419,3001427562,1825,Schönbüelpark 7,47.4410133361816,9.41225528717041,23279.9,1125.9,Shopping Arena,supermarket
1420,3001460383,1170,Domänenstrasse 3,47.440860748291,9.39433193206787,21964.2,1112.1,Shopping Arena,supermarket
1421,3001460403,1825,Schönbüelpark 7,47.4410133361816,9.41225528717041,23279.9,1125.9,Shopping Arena,supermarket
1422,3001460593,1360,Helvetiastrasse 54,47.4345283508301,9.39608287811279,21254.5,1058.6,Shopping Arena,supermarket
1423,3001460566,950,Oberstrasse 65,47.416748046875,9.36429977416992,19889.9,990.0,Shopping Arena,supermarket
1424,3001463476,890,Berneggstr. 52,47.419017791748,9.37270641326904,20731.1,1077.5,Shopping Arena,supermarket
1425,3001462816,1690,Zilweg 14,47.4418754577637,9.4097900390625,22586.3,1193.7,Shopping Arena,supermarket
1426,3001442121,1550,Langgasse 5,47.4342079162598,9.38436317443848,21105.6,1000.0,Shopping Arena,supermarket
1427,3001446965,1500,Guggeienhof 1a,47.4468307495117,9.40468502044678,22963.9,1216.7,Shopping Arena,supermarket
1428,3001451369,990,Helvetiastrasse 41,47.4332618713379,9.3950719833374,21039.4,1034.5,Shopping Arena,supermarket
1429,3001464617,1070,Tigerbergstrasse 2,47.4277496337891,9.37399578094482,20156.3,1008.5,Shopping Arena,supermarket
1430,3001463609,1390,Dreilindenhang 4,47.422737121582,9.38334083557129,21779.0,1189.4,Shopping Arena,supermarket
1431,3001464185,1590,Spisergasse 29,47.4246368408203,9.37842750549316,21621.7,1259.1,Shopping Arena,supermarket
1432,3001462415,1690,Büchelstrasse 4,47.4205780029297,9.36482524871826,19349.3,953.2,Shopping Arena,supermarket
1433,3001462510,1780,Sternackerstrasse 5,47.4262962341309,9.38365173339844,21767.0,1086.4,Shopping Arena,supermarket
1434,3001464371,1825,Magniberg 4,47.429313659668,9.37764644622803,20525.6,1045.3,Shopping Arena,supermarket
1435,3001464187,2300,Furglerstr. 14,47.422290802002,9.35991764068604,19964.6,1007.3,Shopping Arena,supermarket
1436,3001464415,1220,Brühlbleichestrasse,47.4301338195801,9.3830680847168,21405.9,1088.9,Shopping Arena,supermarket
1437,3001466856,1180,Langweidstrasse 4,47.4123268127441,9.35518360137939,17586.9,1032.6,Shopping Arena,supermarket
1438,3001468413,1590,Langgasse 153,47.449104309082,9.39769840240479,22979.7,1175.5,Shopping Arena,supermarket
1439,3001470583,2150,Dufourstrasse 4,47.4352416992188,9.38398742675781,21124.0,1003.6,Shopping Arena,supermarket
1440,3001442287,1380,Treuackerstrasse 34,47.415397644043,9.36264228820801,20519.3,1055.4,Shopping Arena,supermarket
1441,3001451526,940,Engelgasse 8,47.4263572692871,9.37482452392578,22365.7,1143.7,Shopping Arena,supermarket
1442,3001451843,1380,Wiesentalstr. 14,47.4329490661621,9.39658451080322,21096.3,1043.5,Shopping Arena,supermarket
1443,3001451857,1670,Rehburgstrasse 1,47.4315147399902,9.39706230163574,21343.4,1057.8,Shopping Arena,supermarket
1444,3001454103,1180,Langgasse 46,47.4370613098145,9.38827133178711,21374.9,1028.6,Shopping Arena,supermarket
1445,3001454127,1590,Langgasse 46,47.4370613098145,9.38827133178711,21374.9,1028.6,Shopping Arena,supermarket
1446,3001456385,740,Rehetobelstr. 2,47.4330062866211,9.39983940124512,21499.9,1056.2,Shopping Arena,supermarket
1447,3001456527,840,Rorschacher Strasse 183,47.4329643249512,9.39859294891357,21396.1,1034.9,Shopping Arena,supermarket
1448,3001456492,1660,Brauerstrasse 85b,47.4431800842285,9.4091739654541,23262.9,1146.9,Shopping Arena,supermarket
1449,3001461360,1960,Fürstenlandstrasse 19,47.4148483276367,9.35318183898926,17308.1,962.9,Shopping Arena,supermarket
1450,3001465599,1240,Moosbruggstrasse 5,47.4236755371094,9.37952136993408,20958.8,1085.0,Shopping Arena,supermarket
1451,3001467270,890,Burgstrasse 80,47.4170188903809,9.35645389556885,17646.0,993.1,Shopping Arena,supermarket
1452,3001468434,1660,Falkensteinstrasse 72,47.4314270019531,9.39884471893311,21436.6,1069.6,Shopping Arena,supermarket
1453,3001470695,1340,Höhenweg 13,47.4295043945312,9.37237071990967,20556.1,1054.3,Shopping Arena,supermarket
1454,3001470708,1835,Linsebühlstrasse 99,47.4259910583496,9.38535594940186,21792.2,1104.3,Shopping Arena,supermarket
